storeName,description,wholesalers,distributors,name,position,phoneNumber,email,linkedinPage,city,facebookpage,website,phones
1StopWireless,Mobile Accessories Wholesale Store,yes,û,N/A,N/A,1 905-232-2080,N/A,N/A,"5200 Dixie Rd #4, Mississauga, ON L4W 1E4, Canada",N/A,https://www.1stopwireless.ca/,yes
A1 Wireless Ltd.,"A1 Wireless provides cellular phones, equipment, accessories, supplies and phone plans for both retail and corporate customers. ",no,yes,N/A,N/A,1 604-597-3115,info@a1wireless.ca,N/A,"7711 128th St 1 # 1, Surrey, British Columbia, Canada",https://www.facebook.com/A1WirelessSurrey,https://a1wireless.ca/,yes
All In Tech Inc.,"All In Tech is wholesaler and distributor located in Mississauga, Ontario, Canada.
 We provide Cell Phone Parts for businesses and cell phone repair store.",yes,yes,N/A,N/A,1 6475518144,info@allintechinc.ca,N/A,"5250 Satellite dr, Unit 30, Mississauga, Ontario L4W",N/A,https://allintechinc.ca/,yes
AlphaTech Wholesale,Wholesale of electronics. We Sell High Quality Cell Phone and Tablet Parts. ,yes,no,N/A,N/A,(289) 795-4444,info@alphatechwholesale.com,N/A,"2450 Castlebrook Rd, Oakville, ON L6M 0G5, Canada",N/A,http://www.alphatechwholesale.com/,yes
Atlantia,"For over 20 years, Atlantia has grown into a leading national distributor of iPhone, iPad, Tablet and Laptop accessories.",no,yes,Paul Davis,Senior Sales Manager,1.877.985.7257,sales@atlantia.ca,https://www.linkedin.com/in/paul-davis-8b72a920/,"#121 – 949 West 3rd Street, North Vancouver, BC V7P 3P7, Canada",https://www.facebook.com/AtlantiaCanada/?eid=ARAJQbrf0Wsep9Kwz4XTj4BI2qyYOR8eAViJ888X4cy7IuthBYKqWpMaPm5GL2ci6l2zNoQjRZ5My44P,https://www.atlantia.ca/,yes
Battery Lots,"Battery Lots is a leading distributor of laptop, cell phone and tablet parts in Canada.",no,yes,N/A,N/A,1-855-977-8577,sales@batterylots.com,N/A,"151 Bentley Street Unit 8, Markham, ON L3R 3X9, Canada",N/A,https://www.batterylots.com/,yes
BC Canada Wholesale Electronics Ltd,"We provide all type of cell phone wholesale accessory and parts, Wifi, MP3 Players, Gurbani Radio.",yes,no,N/A,N/A,1 604-300-6550,canadawholesalebc@gmail.com,N/A,"20285 56 Ave, Langley, BC, Canada, British Columbia, Canada",https://www.facebook.com/wholesalebc/,http://www.canadawholesalebc.com/,yes
Beyond Wireless,Beyond Wireless is a Rogers and Fido Authorized Dealer that stays ahead of the curve in today’s ever-changing market by carrying the latest and most innovative technology.,no,yes,Jamie McNain,Co-Owner,N/A,info@beyondwireless.ca,https://www.linkedin.com/in/jamie-mcnain-7400612b,"444 Barrydowne Rd, Sudbury, Ontario CA, Canada",https://www.facebook.com/beyondwirelesscanada,https://beyondwireless.ca/,yes
Blueskycanadan Inc.,"Blueskycanadan Inc.(UniSino International Inc.) is a Canada based importer, exporter and wholesaler of cell phone accessories.",yes,no,N/A,N/A,905-470-6718,sales@usnintl.com,N/A,"400 Don Park Rd unit 18, Markham, ON L3R 1C6, Canada",N/A,http://www.usnintl.com/,yes
Bluetech Canada,Distributors of cell phone accessories.,no,yes,Syed Asim Hussain,Chief Executive Officer,1 (647) 748 5599,salesmd@bluetechcanada.com,https://www.linkedin.com/in/syed-asim-hussain-98980b19a/,"Unit #60BR, 2220 Midland Ave, Scarborough – M1P3E6, Canada",https://www.facebook.com/bluetechcanada/,https://bluetechcanada.com/,yes
Bluetech Shop Inc.,One of the Largest Canadian Mobile and Accessories Wholesale.,yes,no,Mohammed Fatmi,CEO,1 416-743-0999,sales@bluetechshop.com,https://www.linkedin.com/in/mohammed-fatmi-05968818/,"691 Markham Rd #683, Scarborough, ON M1H 2A7, Canada",https://www.facebook.com/bluetechshopinc/,https://bluetechshop.com/,yes
Budget Electronics,"Budget Electronics is a wholesale cell phone, mobile, computer and electronics distributor in Canada.",yes,no,Gitika Ganesh,Ecommerce Specialist,1 (866) 777-2241,support@BudgetElectronics.ca,https://www.linkedin.com/in/gitika-ganesh-1148bb119/,"2450 Finch Ave. West, Unit #5, Toronto, ON, Canada, M9M 2E9",N/A,https://budgetelectronics.ca/,yes
Canadian Cell Parts Inc.,We offer best high quality iPhone and Smartphone LCDs and Parts at wholesale price.,yes,no,Jordan Liu,East Coast Director,1 647-860-2271,jordan@canadiancellparts.com,https://www.linkedin.com/in/jordan-liu-33437b1a3/,"98 Lower Ossington AveToronto, ON M6J 2Y7, Canada",https://www.facebook.com/CanadaianCellPartsCA/,https://www.canadiancellparts.com/,yes
CanFixParts.ca,"CanFixParts.ca is leading and trusted source for iPhone parts, Samsung parts, Sony parts, LG parts, Google Nexus parts, HTC parts, Motorola parts, Nokia parts, Blackberry parts, One Plus parts, Huawei parts and cell phone accessories.",,,N/A,N/A,604-500-3568,chris@canadiancellparts.com,N/A,"#15-1855 West 1st Ave, Vancouver, B.C. V6J 5B8, Canada",https://www.facebook.com/CanFixParts/,https://www.canfixparts.ca/,yes
Cell City Sarnia,"Cell City is in Mobile Phones, Mobile Accessories, Phone Repair business since last 20 years, offering the latest mobile phones and exciting accessories.",no,yes,N/A,N/A,519 541 0606,info@cellcitysarnia.com,N/A,"1380 London Rd Sarnia, Ontario N7S 1P7 Canada",N/A,https://www.cellcitysarnia.com/,yes
Cellco plus,"Cellco plus is one of the largest wholesale and distributor of mobile phones, accessories, and electronics.",yes,yes,Shubham Nautiyal,Quality Control Inspector,1(416)-848-0127,info@cellcoplus.com,https://www.linkedin.com/in/shubhamnautiyal04/,"232 Lesmill Rd, North York, ON M3B 2T5, Canada",https://www.facebook.com/cellcoplusca,https://cellcoplus.com/,yes
CellnTell Distribution Inc.,CellnTell is a leading wholesale cell phones supplier in Canada.,yes,no,Umar Warraich,CEO & Co-Founder,1-800-5555-268,partnerships@cellntell.com,https://www.linkedin.com/in/umar-warraich-b57bbb18/,"401 Traders Blvd East Unit #1 Mississauga, ON L4Z 2H8, Canada",https://www.facebook.com/CellnTell.Distribution.Inc/,https://www.cellntell.com/,yes
Cell Phone Parts Canada,"We specialize in the retail and wholesale of Cell Phone Parts, specializing in iPhone parts, Samsung Phone parts, and Blackberry Parts and HTC parts. Our team has a mission to distribute the quality Cell Phone Parts to repair shops across the country.",yes,no,Ahmed Mansoor,CEO/President,1-866-943-0111,cellpartscanada@gmail.com,https://www.linkedin.com/in/ahmed-mansoor-259a657/,"6200 Dixie RD, Unit # 101 Mississauga, ON L5T2E1 Canada",https://www.facebook.com/CellPhonePartsCanada1/,https://www.cellphonepartscanada.com/,yes
Cesium,"Since 2003, Cesium has grown into one of Canada’s main distributors of mobile accessories, wireless products, and consumer electronics.",no,yes,Vicken Kanadjian,Managing Director,1-877-798-8686,customercare@cesiumtelecom.com,https://www.linkedin.com/in/vickenkanadjian/,"5798 Ferrier, Montreal, QC H4P 1M7, Canada",N/A,https://shop.cesiumonline.com/,yes
CharmCell,"CharmCell is a rising wireless accessories importer/wholesale company, based in Greater Toronto Area (GTA).",yes,no,N/A,N/A,(905)415-8305,info@charmcell.com,N/A,"111 Esna Park Dr. Unit8, Markham, Ontario L3R 1H2, Canada",N/A,http://charmcell.com/,yes
Connects Wireless,"Connects Wireless is a Bell authorized dealer of cellular phones, equipment, accessories, connectivity and phone plans for both retail and corporate customers.",no,yes,Ian Tomlin,President,250-448-7359,kelowna@connectswireless.ca,https://www.linkedin.com/in/ian-tomlin-02691a28/,"129-1889 Springfield Road, Kelowna, BC, V1Y 5V5, USA",https://www.facebook.com/connectswireles/,https://connectswireless.ca/,yes
Encore Cellular Int'l Inc,"We are a company specialized in distribution of all kind of cell phone accessories, like data cables, travel chargers, bluetooth headsets, pouches, car chargers, cases and newly flash memory cards and mobile phones.",no,yes,Tahir Bajwa,CEO & President,1 888-992-0939,info@mydevia.ca,https://www.linkedin.com/in/tahir-bajwa-62422511/,"1325 Eglinton Ave E #219, Mississauga, ON L4W 4L9, Canada",N/A,https://www.encorewireless.ca/,yes
Esource Parts,Canada’s leading wholesale and retail supplier of mobile device parts and accessories.,yes,no,Frady Yacoub,President (owner),647-977-2049,sales@esourceparts.ca,https://www.linkedin.com/in/frady-yacoub-41a96948/,"401 Traders Blvd East, Unit 9 Mississauga, Ontario L4Z 2H8",https://www.facebook.com/Esourceparts/,https://www.esourceparts.ca/,yes
Evolucell Mobile,Evolucellpro is a Canadian distributor of premium mobile consumer electronic goods.,no,yes,Ofhir Dotan,Vice President,(450) 934-1109,N/A,https://www.linkedin.com/in/ofhir-dotan-48254b15b/,"1589 Desserte Nord Autoroute 440, Laval, Quebec, H7X 3L2, Canada",N/A,https://www.evolucellpro.com/,yes
Exporties,"Exporties is a supplier of high quality audio, video, mobile and CB accessories at the best possible price for its partners and customers with over 20 years of experience in the industry.",no,yes,Richer Robitaille,Founder,(450) 437-4709,info@exporties.com,https://www.linkedin.com/in/richer-robitaille/,"604 Rue de la Sablière, Bois-des-Filion, QC, Canada",https://www.facebook.com/exporties,https://exporties.com/,yes
Fleet Network Canada,Proud Canadian Distributor of Incipio.,no,yes,N/A,N/A,1 844 836-8268 ,sales@fleetnetwork.ca,N/A,"134 Rue Baby, Joliette, Quebec, J6E 2V5, Canada",https://www.facebook.com/FleetNetwork.ca/,https://fleetnetwork.ca/,yes
Future Gadgets,"Future Gadgets has been in the cellular phone industry since 1998. We have one of the largest brand name accessories including, Otterbox, Pelican, Griffin,  Puregear, Ballistic and many more. For cell phone chargers, we carry Apple and Samsung USB Wall adapters and data cables.",no,yes,Naiyer Rizvi,Owner,(905) 770-7331,naiyer_rizvi@hotmail.com,https://www.linkedin.com/in/naiyer-rizvi-44604337/,"670 Eglinton Ave W, Mississauga, ON L5R 3V2, Canada",N/A,https://futuregadgets.ca/,yes
GoKrazyWireless,"Here at GoKrazyWireless Canada, we provide wholesale cell phone parts, tablet parts at best quality and price, for guaranteed satisfied phone restoration.",yes,no,N/A,N/A,1 587-873-0303,support@gokrazywireless.ca,N/A,"8322 144 Ave NW, Edmonton, AB T5E 2H4, Canada",https://www.facebook.com/GKWcanada,https://gokrazywireless.ca/,yes
G-Zed Mobile Inc,Importer and Wholesaler of Mobile Phone and portable computing accessories,yes,no,N/A,N/A,1 514-804-6180,info@gzedmobile.com,N/A,"350 Louvain Street .West . B-45, Montreal, QC, Canada",https://www.facebook.com/Xpercell.ca/,http://gzedmobile.com/,yes
Hariom Traders ltd.,We Provide High Quality new and used Cellphone and Long lasting Cellphone Accesorries.,no,yes,Chirag Patel,Owner/Managing Director,1 647-657-0432,hariomtradersltd@gmail.com,N/A,"48 Pickard Ln, Brampton, Ontario L6Y 2M5, Canada",https://www.facebook.com/people/Hariom-Traders-LTD/100063478301229/,N/A,yes
Hawk Wireless Inc.,Cell Phone Parts Wholesaler and Repairs,yes,no,Faisal Ahmed,Chief Executive Officer,1 905-206-0252,info@hawkwireless.ca,https://www..linkedin.com/in/faisal-ahmed-885909181/,"Unit:12, 1200 Aerowood Drive, Mississauga, Ontario L4W 2S7, Canada",https://www.facebook.com/hawkwirelesscan/,https://www.hawkwireless.ca/,yes
Hi-Tech Electronics,"Hi-Tech Electronics is an electronics distributor located in GTA area wholesale across Canada. We carry refurbished computers (laptops and desktops), computer accessories, all model replacement laptop adaptors, mobile phone, cellphone accessories, chargers, cables, car dash cameras, bluetooth speaker, headset, security camera, installation and services for residential and commercial.",no,yes,N/A,N/A,1(905)470-0388,sales@hi-techelectronics.ca,N/A,"170 Esna Park Drive, Markham ON, L3R 1E3, Canada",N/A,https://hi-techelectronics.ca/,yes
Hitfar,"Hitfar is Canada’s Wholesale Distribution, Drop Shipping and Logistics leader for trusted brands in Tech, Health & Wellness, and Cellular products & accessories based in Burnaby, British Columbia.",yes,no,Scott Fargey,Director of Sales,(604) 873-8355,Scott.Fargey@hitfar.com,https://www.linkedin.com/in/scott-fargey-2b051557/,"109-2999 Underhill Ave., Burnaby, BC, V5A 3C2, Canada",http://www.facebook.com/Hitfar,https://www.hitfar.com/,yes
Holdsen International Ltd.,"Based in Toronto, Holdsen International Ltd. is a Canadian owned and operated factory direct electronics distributor since 2008. Our products include high quality AC adapters and laptop batteries, printer adapters, toner cartridges, portable power banks, Bluetooth devices, speakers, earphones, data cables, USB chargers, smart phone accessories, and other consumer electronics.",no,yes,N/A,N/A,905 604 2630,service@localexpress.ca,N/A,"7-7321 Victoria Park Avenue. Markham. Ontario,Canada",N/A,https://www.localexpress.ca/,yes
Importel Ltd.,"Importel Ltd. is a B2B distributor for the 12 volt installation, car audio and mobile electronics industries including marine, powersports and motorcycle.",no,yes,Kelly Holley,Director of Sales and Marketing,1 (800) 363-3413,sales@importel.com,https://www.linkedin.com/in/kelly-holley-b323275/,"1655 Flint Rd., North York, ON M3J 2W8, Canada",https://www.facebook.com/Importel/,https://www.importel.com/,yes
ITPartStore,"Online wholesaler of laptop and smartphone spare replacement service parts. Brands include Acer, Al",yes,no,Michael Ball,President,1 613-935-4500,mikeb@ITPartSource.com,https://www.linkedin.com/in/michael-ball-353292140/,"108 Second St W, Cornwall, ON K6H 5S7, Canada",https://www.facebook.com/ITPartStore,https://itpartstore.com/,yes
Joe Mobile Tech.,"We are a local supplier for quality Samsung, iPhone, LG, Sony and Nexus screens and parts.",yes,no,N/A,N/A,1 613-668-8168,joe@joeunlock.com,N/A,"780 Baseline Rd. Unit #22, Ottawa, ON, Ontario, Canada",http://www.facebook.com/joeunlock,http://www.joemobiletech.ca/wholesale/,yes
LCD SEN,"Based in Montreal, LCD SEN is a wholesale company specializing in LCD touch screens, windows, batteries and other small parts for cell phones and tablets from major brands (Apple, Samsung, LG, Sony, Blackberry, Motorola, etc.). With an experience of more than 20 years, LCD SEN has established itself as a reference in the field of telephony.",yes,no,N/A,N/A,514.548.0057,Sales@mtech.shop,N/A,"6042 Boulevard Metropolitain Est, Montreal Quebec, H1S 1A9, Canada",N/A,https://lcd-sen.com/,yes
LCDSwap Canada,LCDSWAP is the #1 Cell Phone Replacement Parts Distributor and Wholesale Supplier in the USA and Canada carrying over 9000 unique SKUs for Repair Parts..,yes,yes,N/A,N/A,N/A,info@lcdswap.com,N/A,"PO Box 53030, BP Extase PO, Dorval, QC H9S 5W4, Canada",N/A,https://lcdswap.com/,yes
Libratel Inc.,Libratel is a leading mobile accessory manufacturer and distributor across Canada.,no,yes,Peter Pejouyan,President,416-615-0700,support@libratel.com,https://www.linkedin.com/in/peter-pejouyan-1ab89241/,"23 Railside Unit 4, Toronto, Ontario, Canada, M3A1B2",https://www.facebook.com/Libratel,https://www.libratel.com/,yes
Mac Outpost,Mac Outpost is the premiere Authorized Apple Specialist (Apple Reseller) and Service Provider in London.,no,yes,N/A,N/A,519-645-763,info@macoutpost.com,N/A,"152 Wharncliffe Rd. S., London, ON N6J 2K6, Canada",https://www.facebook.com/people/Mac-Outpost-London/100057386840800/,https://macoutpost.com/l,yes
Marketcell,Wholesale Parts for Mobile Cellphone in Canada,yes,no,N/A,N/A,N/A,partslcdsen@gmail.com,N/A,Canada,https://www.facebook.com/people/Marketcell-Wholesale-Parts-for-Mobile-Cellphone-Canada/100063588701619/,https://www.marketcell.ca/,yes
Matrix Mobile Inc.,"MMP is the leading phone parts supplier. iPhone Parts, iPad Parts, Samsung Cell Phone Parts, and more.",yes,no,N/A,N/A,(204) 979-8059,hello@matrixmobile.ca,N/A,"701 Sterling Lyon Parkway, Winnipeg, MB R3P 2V1, Canada",https://www.facebook.com/MatrixMobileInc/,https://matrixmobile.ca/,yes
MK Mobile,MK Mobile is a leading Wholesaler of Phone/Tablet parts and accessories.,yes,no,N/A,N/A,1 514-273-6072,info@mkmobile.ca,N/A,"1302D Bélanger, Montreal QC, Canada H2G 1A1",https://www.facebook.com/MKmobile.ca,https://www.mkmobile.ca/,yes
Mobile Parts 247,Cellphone Repair Parts & Cellphone Wholesale Distributor,yes,no,N/A,N/A,1-416-546-8713,info@mobileparts247.com,N/A,"3497 Kennedy Road, Unit 1, Toronto ON M1V 4Y3, Canada",https://www.facebook.com/mobileparts247,https://www.mobileparts247.com/,yes
Mobile Q,"Mobile Q is your one-stop-shop for cell phone covers, cases, replacement batteries, chargers, and Bluetooth headsets precision-fitted to match all your phone needs along with computer & cell phone repair and the best brand name cell phone accessories, Mobile Q provides in-depth customer service to shed light on any questions or issues. We also offer a 100% satisfaction guarantee and free estimation on all our repair services.",no,yes,N/A,N/A,1 604-222-1111,admin@mobileq.ca,N/A,"Unit #102 12877 76th Avenue , Surrey, British Columbia V3W 1E6, Canada",https://www.facebook.com/Mobile-Q-Canada-110902041243163,https://www.mobileq.ca/,yes
Mobilesentrix Canada,"Mobilesentrix Canada is wholesaler and Supplier of Cell Phone Parts, iPhone Repair Parts, Samsung Mobile Replacement Parts.",yes,no,Gerald Dcosta,Operations Manager,1 (647) 317-3118,sales@mobilesentrix.ca,https://www.linkedin.com/in/gerald-dcosta-b0b73057/,"25 Planchet Road Unit 5, Concord Ontario L4K2C5, Canada",https://www.facebook.com/MobileSentrixCanada/,https://www.mobilesentrix.ca/,yes
Mobile Snap,"Since its inception in 2008, Mobile Snap has grown rapidly and has become one of the leading distributors of wireless phone accessories and electronic items in Canada. Mobile Snap offers a complete range of high-quality, modern and innovative products such as cases, batteries, pouches, chargers, hands-free devices and screen protectors for mobile phones.",no,yes,Mohamed Taboubi,Chief Executive Officer,(450) 681-0060,info@mobilesnap.ca,https://www.linkedin.com/in/mohamed-taboubi-b8423215a/,"4616 Rue Louis-B.-Mayer, Laval, QC H7P 6E4, Canada",https://www.facebook.com/mobilesnapcanada/,https://www.mobilesnap.ca/,yes
Mobile Tech Lab,Mobile Tech Lab is a Winnipeg based mobile device and mobile device accessories repair and retail business.,no,yes,Daniel Okagbare,Founder,1 204-808-9416,tuxedo@mobiletechlab.ca,https://www.linkedin.com/in/daniel-okagbare-b51531158/,"2020 Corydon Ave, Unit F, Winnipeg, MB R3P 0N2, Canada",http://facebook.com/mobiletechlab.ca,https://mobiletechlab.ca/,yes
Mobile Zap,"Mobile Zap is an online wholesale distributor of Cell phone Parts , Accessories and Used Smartphones and Tablets.",yes,no,Piyush Sawhney,Chief Executive Officer,(780) 244-6927,info@mobilezap.ca,https://www.linkedin.com/in/piyush-sawhney-827ba659/,"11211 180 St NW, Edmonton, AB T5S 0B4, Canada",N/A,https://mobilezap.ca/,yes
New Advance Wireless,"Wholesale distributor -Phones, parts and accessories.",yes,no,Irfan Malik,Business Owner,(416) 551-2964,newadvancewireless@gmail.com,https://ca.linkedin.com/in/irfan-malik-666193165/,"32 Rexdale Blvd, Etobicoke, ON. M9W 5Z3, Canada",N/A,http://newadvancewireless.ca/,yes
Nexus Cellular,"Nexus Cellular has established itself as a leading business-to-business distributor of Mobile Phones, Parts and Accessories.",no,yes,Irfan Bajwa,President & CEO,1-877-614-1001,irfan@nexuscellular.com,https://www.linkedin.com/in/irfan-bajwa-756b4a9/,"1090 Aerowood Dr., Unit #7 Mississauga, ON L4W 1Y5, Canada",https://www.facebook.com/nexuscellularofficial,https://nexuscellular.com/,yes
Nufix Canada Services Inc.,"Nufix Canada is a retailer and wholesaler of replacement parts for mobile phones, tablets and apple product since 2009. We are located in Montréal, QC and we ship anywhere in Canada.",yes,no,N/A,N/A,1 438 226-4169,sales@nufix.ca,N/A,"Montréal, QC, Canada",N/A,https://www.nufix.ca/,yes
OlegoXpress,OlegoXpress offers wholesale phone accessories to market in Canada & USA.,yes,no,N/A,N/A,1 855-956-5346,sales@olegoxpress.com,N/A,"2750 Pitfield Blvd, Montreal, Quebec, H4S 1G9, Canada",https://www.facebook.com/OlegoXpress,https://www.olegoxpress.com/,yes
Prime Communications Canada Inc.,"Prime Communications Canada Inc. is the largest authorized Rogers dealer in Canada, with over 50 Rogers and Fido retail locations and B2B services across the country.",no,yes,Alex Volonte,Business Account Manager,(604) 872-3436,alex.volonte@primecomms.ca,https://www.linkedin.com/in/alex-volonte-85b432a,"100 Via Renzo Dr, Richmond Hill, Ontario L4S 0B8, Canada",https://www.facebook.com/RogersDealer/,http://www.primecomms.ca/,yes
RS Distribution Inc.,"RS Shop is a proud Canadian wholesaler and distributor of consumer electronics, mobile accessories, cell phone signal boosters, security cameras, smart home and telecommunication products.",yes,yes,Benjamin Chen,President,204-807-2988,info@rsshop.ca,https://www.linkedin.com/in/benjamin-chen-8a6b2166/,"135 Paramount Rd, Winnipeg, MB R2X 2W6, Canada",https://www.facebook.com/RSShopCA/,https://rsshop.ca/,yes
S2B Distribution,"S2B Distribution was established in 2011 and is a growing Canadian distributor representing award winning and innovative brands from around the world.
Working closely with retailers including Apple Specialists and Resellers, national retail chains and other major stores who carry our brands, we’ve built great relationships and heard many business success stories over the years.",no,yes,Michael Chen,Sales Manager,(778) 318-5628,michael@simply2buy.com,https://www.linkedin.com/in/michael-chen-731ab29a/,"2133-20800 Westminster Hwy, BC, V6V 2W3, Canada",https://www.facebook.com/simply2buy/,https://www.facebook.com/simply2buy/,yes
Selfie Stick,"Selfie Stick is the manufacturer, distributor and seller of the original selfie stick.",no,yes,N/A,N/A,N/A,N/A,N/A,"Suite 424 - 576 Ontario Street, St. Catharines, Ontario L2N 4N7, Canada",https://www.facebook.com/people/Selfie-Stick/100069574644270/,http://shopselfiestick.com/,yes
Simply Computing,"Simply Computing is the largest independent Apple retailer in Canada with 80+ employees in 6 locations and 16 Express locations.
We offer the full line of Apple products, as well as a wide range of accessories, services, training, and Mac-based business solutions, and our knowledgeable and committed staff take pride in providing you with the best source of Apple product knowledge and service.",no,yes,N/A,N/A,1 877-714-1450,onlinesales@simply.ca,N/A,"203-1690 West Broadway, Vancouver BC V6J1X6, Canada",https://www.facebook.com/simplydotca,https://www.simply.ca/,yes
TM Electro,"TM Electro – Buy Mobile Phone Accessories Online in Canada, we are top wholesaler & retailer cell phone accessories supplier in Canada.",yes,no,N/A,N/A,905-449-3502,info@tmelectro.com,N/A,"Toronto, Canada",N/A,https://tmelectro.ca/,yes
TXParts Enterprise LLC,"No 1 source for best quality wholesale cell phones repair parts, iPhone 6 and Samsung Galaxy S7 repair parts & Accessories.",yes,no,N/A,N/A,832-324-9590,sales@txparts.com,N/A,"1150 Eglinton Ave East, Unit 102, Mississauga, L4W2M6, Canada",N/A,https://www.txpartscanada.ca/,yes
T&X Trading Inc. ,"T&X Trading Inc. is one of the largest cell phone, mobile, computer and electronics accessories distributors.",no,yes,N/A,N/A,1 450-465-5506,txtrading@hotmail.com,N/A,"8500 Boul. Taschereau, Unit 11, Brossard, Quebec, J4X 2T4, Canada",https://www.facebook.com/txtradinginc/,https://www.tanstartrade.com/,yes
Unlockr Parts,Unlockr Parts is a phone repair replacement parts wholesale supplier in Canada.,yes,no,Nathan Viens,Human Resources Manager,1-844-664-8388.,support@unlockr.ca,https://www.linkedin.com/in/nathan-viens-a95658159/,"Montréal, Quebec Canada",https://www.facebook.com/unlockr.ca/,https://unlockr.ca/,yes
Wireless Now Trading Inc.,"Originally established as the mobile distribution arm of high end mobile brands such as Samsung, Apple, BlackBerry and various others. Wireless now inc. has built an enviable reputation as a distributor of electronics over the years. ",no,yes,Junaid Siddiqui,Director,(416)-258-9488,junaid@wireless-now.com,https://www.linkedin.com/in/junaid-siddiqui-39690a91,"2 County Court Blvd, Brampton, Ontario, L6W 3W8, Canada",N/A,http://www.wireless-now.com/,yes
Wireless Source Link,"We are cell phone accessories importers, traders and dealers. ",no,yes,Salman Habib,Director,1 905-624-6466,salman@wirelesssourcelink.com,https://www.linkedin.com/in/salman-habib-6898b557/,"5266 General Rd, Mississauga, ON L4W 1Z8, Canada",https://www.facebook.com/wirelesssourcelink/,https://www.wirelesssourcelink.com/,yes
Wireless Warehouse,"Since 2004, Wireless Warehouse has been a proud direct importer and distributor of Wireless Phones, Phone Parts, Accessories, and Tools.",no,yes,N/A,N/A,(519) 566-1553,info@wirelesswarehousewholesale.ca,N/A,"310 Hanna St. E, Windsor, ON, N8X 4W6, Canada",https://www.facebook.com/wirelesswarehousewholesale/,https://www.wirelesswarehousewholesale.ca/,yes
Wireless Xplosion Ltd,"Wireless Xplosion Ltd, is a largest wholesale distributor of mobile phones & accessories. We distribute the latest phone cases, chargers, mounts & tempered glasses.",no,yes,Zubayer Hasan,CFO,416-291-2300,sales@wirelessxplosion.ca,https://www.linkedin.com/in/zubayer-hasan-9a145411a/,"32 Howden Rd, Unit 1 Toronto, ON M1R 3E4 Canada",N/A,https://www.wirelessxplosion.ca/,yes
Wplus,Wplus is a wholesale vendor of mobile phones and accessories.,yes,no,N/A,N/A,1 905-479-4000,sam@wplus.ca,N/A,"111 Esna Park Dr #3, Markham, ON L3R 1H2, Canada",N/A,https://www.wplus.ca/,yes
Xcel Source Corp,"Based in Mississauga, Ontario,
 Xcel Source is a privately held Canadian distributor specializing in digital lifestyle accessories for cellular devices, tablets, PC’s and Macs, as well as software.",no,yes,Helen Koutsogiannopoulos,President,1-877-612-8030,helen@xcelsource.com,https://www.linkedin.com/in/helen-koutsogiannopoulos-8ba4427/,"4190 Sladeview Cres. Unit 1 Mississauga, Ontario, L5L 0A1, Canada",https://www.facebook.com/Xcel-Source-Corp-1570506469873383/,https://www.xcelsource.com/,yes
XpressTronics Inc.,XpressTronics is the top wholesale cell phone accessories supplier in Canada.,yes,no,N/A,N/A,1 (877) 564 4788,info@xpresstronics.ca,N/A,"1694 Eglington Ave W, York, ON M6E 2H5 Canada",https://www.facebook.com/xpresstronics.ca/,https://www.xpresstronics.ca/,yes
"BTC Wholesale Distributors, Inc.",Distributors of Cellular Accessories.,no,yes,N/A,N/A,1-800-443-4128,sales@btcwholesale.com,N/A,"100 Airview Lane, Alabaster, AL 35007, USA",N/A,https://www.btcwholesale.com/,yes
AK Phone Repair,Cell Phone Store in Anchorage,yes,no,N/A,N/A,(907) 360-9005,N/A,N/A,"3020 Minnesota Drive #22 Anchorage, AK 99503, USA",N/A,https://www.yelp.com/biz_redir?url=https%3A%2F%2Fak-phone-repair.business.site&cachebuster=1672879051&website_link_type=website&src_bizid=ogLKELB5i7bGUoPBUtJKRg&s=fd1a52644163ccc9cc79a8fd25ef5916315febf69a7ddd822fca4abba24cc33a,yes
Cricket Wireless Authorized Retailer,"Mobile Phones, Mobile Phones Accessories in Alaska",no,yes,N/A,N/A,N/A,N/A,N/A,"800 E Dimond Blvd Suite 165, Anchorage, AK 99515, United States",https://www.facebook.com/cricketwireless,https://www.cricketwireless.com/,yes
For My Cell,"At For My Cell, our goal is clear: to be the best Cell Phone Accessories & Repair Store in the Mat-Su Valley.",no,yes,Helena Wierzbicki,Owner,(907) 357-7464,4mycell@gmail.com,N/A,"617 S Knik-Goose Bay Rd B, Wasilla, AK 99654, USA",https://www.facebook.com/ForMyCell/,https://www.formycell.net/,yes
Nutz Gadget,Wholesalers in Alaska,yes,no,N/A,N/A,(907) 717-6058,N/A,N/A,"601 E Northern Lights Blvd Ste M Anchorage, AK 99503, USA",N/A,https://nutzgadget.us,yes
Target Mobile,"Cell phone & Accessories store in Anchorage, Alaska",no,yes,N/A,N/A,1 907-269-2100,N/A,N/A,"150 W 100th Ave STE A, Anchorage, AK 99515, United States",N/A,https://www.target.com/c/electronics-cell-phones/-/N-5xte8,yes
Victra - Verizon Authorized Retailer,"Mobile Phones, Mobile Phones Accessories in Alaska",yes,no,N/A,N/A,(907) 290-8133,N/A,N/A,"110 W Tudor Rd Suite A Anchorage, AK 99503, USA",https://www.facebook.com/VictraStore/,https://www.yelp.com/biz_redir?url=https%3A%2F%2Fwww.victra.com%2F%3Futm_content%3DYelp%26utm_medium%3DURL%26utm_source%3DYelp&cachebuster=1672879166&website_link_type=website&src_bizid=h5AMGP2lhTvXnlZDZz7RaA&s=2fe45a8df8140e11171541786e7f9082bea593bd4f5dcdee1dec6f4539d03ae9,yes
Visionary Electronics LLC,"Cell phone & Accessories store in Anchorage, Alaska",no,yes,N/A,N/A,(907) 258-5020,visionaryelectronics@outlook.com,N/A,"707 E 15th Ave UNIT 3, Anchorage, AK 99501, United States",https://www.facebook.com/VvisionaryElectronics,https://visionaryelectronics-llc.ueniweb.com/,yes
ZAGG Dimond,"Cell phone & Accessories store in Anchorage, Alaska",no,yes,N/A,N/A,1 907-306-0946,dimond@zaggretail.com,N/A,"800 E Dimond Blvd #3-500, Anchorage, AK 99515, United States",https://www.facebook.com/ZAGGStore/,https://www.zaggfranchise.com/dimond-ak/,yes
Renovo Cellular Parts,"Renovo Cellular Parts LLC is a leading wholesale supplier of Wireless repair parts, which carry a wide range of selections, of gadgets and wireless accessories. The fast-growing smartphone wholesale distributor whose primary focus is the recycling business of LCD'S and Smartphones.",yes,no,N/A,N/A,1 520-327-1465,N/A,N/A,"5447 E 5th St. Ste 210B. Tucson, AZ 85711, USA",https://www.facebook.com/RenovoCellularParts/,http://www.renovocellularparts.com/,yes
Solarcomm Wireless,Solarcomm Wireless is one of the leading cellular phone distributors in the US.,no,yes,Erik Molden,President,1 480-945-3505,emolden@solarcommwireless.com,https://www.linkedin.com/in/erik-molden-17b5755/,"2143 E 5th St, Tempe, AZ 85281, United States",N/A,https://solarcommwireless.com/,yes
Sourcely Plus,Sourcely Plus is a leading wholesale cell phone and iphone repair parts distributor.,yes,no,N/A,N/A,(602)-800-9825,help@sourcelyplus.com,N/A,"549 S 48th St Suite 107, Tempe, AZ  85281, USA",N/A,https://sourcelyplus.com/,yes
Adreama,"Adreama is a North American distributor of consumer goods in the mobile phone, tablet, & wearable accessories.",no,yes,N/A,N/A,N/A,ralph@adreama.com,N/A,"California, USA",https://www.facebook.com/adreamadistributors.inc/,https://adreama.com/,yes
Aeonz Electronics,A wholesale replacement cell phone and tablet parts retailer.,yes,no,N/A,N/A,(818) 824-4545,info@aeonz.com,N/A,"7314 Laurel Canyon Blvd., North Hollywood, CA 91605, USA",https://www.facebook.com/yourcellparts/,https://aeonz.com/,yes
AH Brands Inc,AH brands has been a leading  Cellphone accessories wholesalers since 2010.,yes,no,N/A,N/A,209 297 3200,N/A,N/A,"5681, Franklin blvd Ste T, Sacramento, CA 95824, USA",https://www.facebook.com/ahbrandssac,https://www.ahwholesale.com/,yes
AH Wholesale Lycamobile Master Dealer-Prepaid Sim Cards,AH Prepaid is Leading Authorized master cell phone distributor for Lycamobile.,no,yes,N/A,N/A,(209) 297-3200,N/A,N/A,"520 North Main Street #206 Angels Camp, CA 95222 USA",N/A,https://ahprepaid.business.site/?utm_source=gmb&utm_medium=referral,yes
"Aimo Wireless, Inc.",Wholesaler of Cellular/ Mobile/ Tablet Accessories.,yes,no,N/A,N/A,626-369-6688,sales@aimowireless.com,N/A,"17930 E. Rowland St., City of Industry, CA 91748, USA",https://www.facebook.com/AimoWireless,http://aimowireless.com/,yes
"AmeriTel, Inc.","Ameritel, headquartered in New York City has seen a tremendous growth in its network of more than 3,400 retail merchants. They are also one of the most highly rated wholesale cell phone distributors.",yes,yes,Chaz Chahal,CEO,1 800-974-6637,info@ameritelinc.com,https://www.linkedin.com/in/chazchahal/,"9445 De Soto Ave, Chatsworth, CA 91311, USA",N/A,https://www.ameritelinc.com/,yes
Bargain Wholesale,High value source of wholesale Cell Phone Accessories.,yes,no,N/A,N/A,(323) 980-8170,showroom@bargainw.com,N/A,"4000 Union Pacific Ave, Los Angeles, CA 90023, USA",https://www.facebook.com/bargainwholesaleca,https://www.bargainw.com/,yes
Best LA Wireless,Cell phone & Accessories store in California,no,yes,N/A,N/A,1 213-620-1000,sales@bestlawireles.com,N/A,"308 S Los Angeles St, Los Angeles, CA 90013, United States",N/A,https://bestlawireless.com/,yes
Beyond Cell,"BEYOND CELL is a premium cell phone accessories manufacturer and distributor in sunny Los Angeles, CA.",no,yes,N/A,N/A,1 626-869-0717,sales@beyondcell.com,N/A,"12718 Schabarum Ave, Baldwin Park, CA, United States",https://www.facebook.com/MyBeyondCell/,https://www.beyondcell.com/,yes
C2 Wireless,"C2 Wireless is a leading distributor of wireless accessories, handsets, wearables, parts and PC components, offering the latest and most innovative products from top manufacturers and in-house owned and licensed brands.",no,yes,Jay Sachdeva,CEO,1-877-229-0017,sales@c2wireless.com,https://www.linkedin.com/in/jay-sachdeva-79300814,"17852 E 17th Street #205, Tustin, CA 92780, USA",http://www.facebook.com/c2wireless,https://www.c2wireless.com/,yes
"CableWholesale.com, Inc.","CableWholesale carries a wide selection of wholesale cell phone accessories. Our collection includes Bluetooth products, data cables, cases and organizers, headphones, cell phone chargers, and more.",yes,no,Sharon Jiang,Founder and CEO,(925) 455-0800,sales@cablewholesale.com,https://www.linkedin.com/in/sharon-jiang-895b6b15/,"1200 Voyager St., Livermore, CA 94551, USA",https://www.facebook.com/CableWholesale,https://www.cablewholesale.com/,yes
Cellet Wholesale,The largest wholesaler and manufacturer of mobile accessory brand for over 20 years.,yes,no,N/A,N/A,(562)404-2800,info@cellet.com,N/A,"13211 166Th Street, Cerritos, CA 90703, U.S.A.",https://www.facebook.com/gocellet,https://wirelesscloseout.com/,yes
Cellpak Inc.,Cellpak Inc. is a distributor of cellphone accessories and manufacturer of cell phone cases.,no,yes,Bob Niedermeier,General Manager,(909) 839-2888,N/A,https://www.linkedin.com/in/bob-niedermeier-792880a/,"138 South Brent Circle, City Of Industry, CA 91789, USA",N/A,http://www.cell-pak.com/,yes
CellularOutfitter,CellularOutfitter is a dominant online retailer of mobile accessories with an upstart fashion-forward direct-to-consumer brand (Mobovida) that's forging a unique and disruptive way of product development via our various digital marketing channels.,no,yes,Ryan Sutcliffe,Customer Service Representative,N/A,support@cellularoutfitter.com,https://www.linkedin.com/in/ryan-sutcliffe-164649b3/,"18535 E. Gale Ave. City of Industry, CA 91748, USA",https://www.facebook.com/cellularoutfitter/,https://www.cellularoutfitter.com/,yes
"Celluphone, Inc.","Celluphone, Inc. is engaged in the wholesale distribution of wireless equipment. It offers smartphones, feature phones, Internet devices, and accessories; online tools for large retail chains; and personal support services.",yes,no,Annette Lopez,Director of Marketing,(800) 367-8822,DealerSupport@Celluphone.com,https://www.linkedin.com/in/annette-lopez-b9294a81/,"6119 East Washington Blvd., Los Angeles, CA 90040, USA",N/A,https://secure.celluphone.com/,yes
"CTB Wireless, Inc.","Wholesale distributors of cellular phones, accessories, parts and mobile electronics since 1998.",yes,no,N/A,N/A,626.345.9705,info@ctbwireless.com,N/A,"3579 E. Foothill Blvd., Suite 385, Pasadena, CA 91107-3119, USA",N/A,https://ctbwireless.com/,yes
digiCircle.com,Cell phone & Accessories store in California,no,yes,N/A,N/A,1 510-656-5050,N/A,N/A,"41509 Albrae St, Fremont, CA 94538, United States",N/A,http://www.digicircle.com/,yes
Digital Wireless Wholesale Phone Accessories,"Wholesaler in Sacramento, California",yes,no,N/A,N/A,1 916-856-1800,digitalwirelessnew@gmail.com,N/A,"5460 Florin Perkins Rd, Sacramento, CA 95826, United States",N/A,https://www.dwirelesst.com/,yes
DirectFix,"We offer quality parts & mail in repair services for iPhone, iPad, iPod, Android and more.",no,yes,N/A,N/A,(866) 979-1623,customerservice@directfix.com,N/A,"358 Digital Drive Morgan Hill, CA 95037, USA",https://www.facebook.com/DirectFix/,https://directfix.com/,yes
Discount Cellular Accessories,Discount Cellular Accessories is a third party wholesale retailer that supplies cell phone accessories across the greater Los Angeles Area since 1997. ,yes,no,Jasen Seeger,Owner,800-230-1027,jasen@calldcafirst.com,N/A,"22935 Ventura Blvd. Suite 228, Woodland Hills, CA 91364, USA",N/A,https://www.cellular4u.net/,yes
Downtown Cellular,"Our company offers for wholesale and retail a variety of all wireless needs ranging from cellphones, prepaid cards,to accessories.",yes,no,N/A,N/A,(213) 746-3334,info@downtowncellular.com,N/A,"1827 E 16th St Los Angeles CA 90021, USA",https://www.facebook.com/DowntownCellular/,https://downtowncellular.com/,yes
DreamWireless Inc.,"As one of North America’s largest wholesale wireless accessory distributors, Dream Wireless redefines the excellence in distributorship by constantly keeping up with the dynamics of the marketplace in demands, supplies and solutions.",yes,yes,Brandi Castillo,CEO / Owner,626.820.1600,sales@dreamwireless.com,https://www.linkedin.com/in/brendacastillo2122/,"20625 Lycoming St, Diamond Bar, CA 91789, USA",https://www.facebook.com/dreamwireless/,https://dreamwireless.net/,yes
"EagleCell, Inc.","Eaglecell is a leading manufacturer of a wide range of cell phone accessories such as skin cases, protectors, and batteries. With a 20,000 square feet warehouse in California, U.S.A. and a 60,000 square feet factory in China. Eaglecell manufactures high quality products and distributes them to North America, Latin America, and Asia.",no,yes,N/A,N/A,626-968-3188,sales@eaglecell.com,N/A,"590 W. Central Ave. Ste. I, Brea, CA 92821, USA",https://www.facebook.com/Eaglecell,http://eaglecell.com/,yes
Emaan wireless Inc,"Emaan wireless Inc. is a professional factory direct manufacturer, importer and distributor offering thousands of accessories for all the top brands.",no,yes,N/A,N/A,510-979-9500,emaanwireless@hotmail.com,N/A,"1512 Fulton Place, Fremont, CA 94539, USA",N/A,http://www.emaanwireless.com/,yes
"Emax City, Inc.",Wholesale of Cellular/ Mobile/ Tablet Accessories.,yes,no,N/A,N/A,(909) 895-0868,sales@emaxcity.net,N/A,"19973 Harrison Ave., City of Industry, CA 91789, USA",https://www.facebook.com/Emaxcity,http://www.emaxcity.com/,yes
Entro Wholesale,We offer a variety of premium quality accessories for mobile businesses,yes,no,N/A,N/A,(212)203-7521,hello@entrowholesale.com,N/A,"California, USA",https://www.facebook.com/Entrowholesale/,https://www.entrowholesale.com/,yes
Exchange Cellular,Our company is a nationwide distributor of accessories for wireless phones and PDA’s.,no,yes,N/A,N/A,303-420-0391,N/A,N/A,"316 Mira Loma Ave, Glendale, California, 91204, United States",N/A,https://exchangecellular.com/,yes
Fatboy Cellular - Mobile Cell Phone Accessories Wholesaler,"FATBOY CELL LX Inc, a wholesaler / distributor / importer that offers top quality cell phone accessories in the United States since 2015. Fatboy Cell's most popular products consist of a variety of accessories ranging from protective cases, wallet pouches, chargers, hands frees, and power-banks. If you are a Wholesaler/Retailer, consider our innovative product lines.",yes,yes,N/A,N/A,1 626-961-5388,info@fatboycell.com,N/A,"15336 Valley Blvd, City of Industry, CA 91746, United States",N/A,http://www.fatboycell.com/,yes
Gadgetfix Inc.,Wholesale Cell Phone Replacement Parts,yes,no,N/A,N/A,844-842-3438,order@gadgetfix.com,N/A,"15041 Bake Parkway, Unit C, Irvine, CA 92618, USA",https://www.facebook.com/gadgetfixdotcom/,https://gadgetfix.com/,yes
G Wireless - Distributor & Wholesaler of Cell Phone Accessories,"G Wireless is a wholesale company with an objective to distribute the best consumer electronics products across the country. We are a one-stop-shop with a lot to offer such as; cell phones, screen protectors, headphones, batteries, chargers, cables, speakers, and much more. We also offer mobile services such as; T-Mobile, Boost Mobile, Page Plus, GoSmart, Simple Mobile, H20. ",yes,no,N/A,N/A,213-745-5065,info@gwirelessinc.com,N/A,"2323 S Hoover St, Los Angeles, CA 90007, United States",N/A,https://www.gwirelessinc.com/,yes
HDAccessory.com,"HDAccessory.com brings the best in consumer electronics, portable accessories, entertainment software and more directly to you, from a company you can trust.",no,yes,N/A,N/A,N/A,info@hdaccessory.com,N/A,"3380 Flair Drive Suite 107, El Monte, CA 91731, USA",N/A,https://www.hdaccessory.com/,yes
Highest Rated Wireless Inc,Highest Rated Wireless Inc. is one of the leading providers of wholesale cell phone and wireless accessories worldwide.,yes,no,Nitish Dhir,Founder,626-347-5662,info@hrwireless.com,N/A,"2037 S Vineyard Ave, Ontario, CA 91761, United States",N/A,http://www.hrwireless.com/,yes
Hypercel Corporation,Hypercel is a wholesale wireless distributor of mobile phone accessories. ,yes,no,David Nazar,CEO,1 661-310-1000,globalsales@hypercel.com,N/A,"28385 Constellation Rd, Valencia, CA 91355, United States",https://www.facebook.com/hypercel,https://www.hypercel.com/,yes
Kole Imports Inc.,"Founded in 1982, Kole Imports is a mega importer and wholesaler of general merchandise and closeout deals in the USA. In fact,  Kole Imports has more than 2000 best-selling products including a wide assortment of phone accessories and electronic gadgets.
The range includes charging cables, Bluetooth earphones, car chargers and stands. Kole Imports also carry a large collection of tablet accessories, wireless headphones and powerbanks.",yes,no,Robert Kole,Owner,310.834.0004,support@koleimports.com,https://www.linkedin.com/in/robkolebuyscloseouts/,"24600 Main Street Carson, CA 90745, USA",https://www.facebook.com/KoleImportsWholesale,https://www.koleimports.com/,yes
Kracked Screens,Kracked Screens is a global distributor of mobile device parts. ,no,yes,N/A,N/A,(510) 282-7959,sales@krackedscreens.com,N/A,"2890 N Main Street, Suite 207, Walnut Creek, CA 94597, USA",N/A,https://www.krackedscreensparts.com/,yes
LA Express Distribution - Cell Phone Accessories Wholesale,"Wholesaler in La Puente, California",yes,no,N/A,N/A,626-501-5819,info@laexpressdistribution.com,N/A,"15858 Main St.,La Puente, CA. 91744, USA",https://www.facebook.com/LAExpressDistribution/,https://www.laexpressdistribution.com/,yes
LCDSwap Inc.,LCDSWAP is the #1 Cell Phone Replacement Parts Distributor and Wholesale Supplier in the USA and Canada carrying over 9000 unique SKUs for Repair Parts..,yes,yes,N/A,N/A,(844) 523-7927,info@lcdswap.com,N/A,"801 S Lemon Ave, Walnut, CA 91789-2906, USA",N/A,https://lcdswap.com/,yes
Maya Parts,Maya Parts is a cellular replacement parts distribution and wholesale operation involved exclusively in B2B sales and services.,yes,yes,N/A,N/A,424 248 3896,sales@mayacellularparts.com,N/A,"4941 Walnut Grove Ave., San Gabriel, CA 91776, USA",https://www.facebook.com/MayaCellularParts/,https://mayacellularparts.com/,yes
Mega Wireless Los Angeles,"Cell phone store in Los Angeles, California",yes,no,N/A,N/A,1 213-514-8900,megawireless213@gmail.com,N/A,"530 S Los Angeles St, Los Angeles, CA 90013, United States",https://www.facebook.com/Mega-Wireless-Los-Angeles-,http://www.megawirelessla.com/,yes
Mighty Wireless Wholesale Cellphone Accessories,"Large Selection of Top Selling Wholesale Phone Accessories, Electronics and more.",yes,no,N/A,N/A,(909) 413-1233,sales@mightywirelessinc.com,N/A,"239 E. 5th Street #60 Los Angeles, CA 90013, USA",N/A,https://mightywirelessinc.com/,yes
Mobile Goods,"Mobile Goods is a full-service provider of cell phones, tablets and accessories for enterprise businesses.
 
 We are a partner and authorized reseller of many brands, and carry a full line of smartphones, tablets and accessories from leading companies like Google, Samsung, Lenovo and more.",no,yes,Hiren P.,Founder,1 562-758-0556,info@mobilegoods.net,https://www.linkedin.com/in/hpatel252/,"Cerritos, California 90703, US",https://www.facebook.com/mobilegoodsinc,https://mobilegoods.net/,yes
Motek Team Inc.,"Motek Team Inc. was founded in 2012 with a passion for accessories and now represents quality brands with distributors and retailers in the Americas and around the globe.
We specialize in mobile accessories and consumer electronics (CE) products.",no,yes,N/A,N/A,858-836-1580,N/A,N/A,"7343 Ronson RD STE M, San Diego, CA, 92111, USA",N/A,https://www.motekteam.com/,yes
MPD Mobile Parts & Devices,"MPD Mobile Parts & Device is official Authorized wholesale distributor for Motorola cell phone & tablet repair parts with wide range of repair parts like LCD Display, Back Cover, Charge Port & Connector, Battery, Adhesive, Camera, Camera Lens, Flexes & Cables, Stylus, Speaker, Sim Tray, Vibrate Motor, Frames & other accessories for popular Motorola Models.",yes,yes,James Cooper,Director,(408) 836-7483,sales@mpdmobileparts.com,https://www.linkedin.com/in/james-cooper-53640a19/,"611 Vaqueros Ave, Sunnyvale, CA 94085-3524, USA",https://www.facebook.com/mpdmobilepart/,https://mpdmobileparts.com/,yes
"MyCoolCell, LLC","MyCoolCell is a wholesale wireless accessory distributor that supports Retailers, Repair Shops, Corporate Accounts, College Bookstores and more.",yes,no,Justin Guese,Sales Manager,1(877) 369-2088,info@mycoolcell.net,https://www.linkedin.com/in/justin-guese-85656872/,"18071 Arenth Ave,City of Industry, CA 91748, USA",https://www.facebook.com/MyCoolCell/,https://mycoolcell.net/,yes
Oem Experts,We Sell & Distribute Major Brand Cell Phone Accessories,no,yes,Bobby H.,VP Sales & Business development,718.859.2220,bobby@oemexperts.com,https://www.linkedin.com/in/bobby-h-4719586/,"1020 East 48th Street, Brooklyn, NY 11203, USA",https://www.facebook.com/OEMexperts/,https://oemexperts.com/,yes
Rush Star Wireless,"Rush Star Wireless Wholesale offers a variety of the most popular cell phone models at wholesale prices. From smart phones such as Apple iPhones, to Samsungs, to BlackBerries and everything else in between, we've got them!",yes,no,Marvin Attallah,Chief Executive Officer,(877) 488-7874,info@rushstarwireless.com,https://www.linkedin.com/in/marvinattallah/,"1124 Bay Blvd Ste D, Chula Vista, California 91911, United States",https://www.facebook.com/rushstarwireless,https://www.rushstarwireless.com/,yes
Sahara Wireless,We are manufacturers and distributors of cell phone accessories.,no,yes,Mohammad Samim,General Manager,(213) 999-8332,info@saharawireless.com,https://www.linkedin.com/in/mohammad-samim-23aa00117/,"6111 Scott Way, Commerce, CA, 90040, USA",https://www.facebook.com/saharawirelessOfficial,http://saharawireless.com/,yes
SEG Mobile,"With the purpose of offering the best quality cell phone parts for any repair shop, SEGMobile.com was set up to provide a one-stop solution for our customers. We are able to provide you all the replacement parts for Apple, Samsung, Google, Motorola, LG, and other brands. Our strict QC standard guarantee all of our parts are of high quality.",no,yes,N/A,N/A,1 (840) 207-7727,sales@segmobile.com,N/A,"20615 Valley Blvd, City of Industry, CA 91789, USA",https://www.facebook.com/people/SEG-Mobile/100083470835518/,https://segmobile.com/,yes
Skech,"Manufacturing and distributing smartphone and tablet accessories fit for all shapes, sizes, styles and personalities.",no,yes,Yishay Hornik,Sales Director,(858) 381-5171,onlineorders@skech.me,https://www.linkedin.com/in/yishay-hornik-a5012610/,"3556 Ruffin Rd., San Diego, California 92123, USA",N/A,http://www.skech.me/,yes
Smart Tech Wireless,"Smart Tech Wireless  is the premier distributor of smartphone, tablet, and mobile device accessories for the North American market.",no,yes,N/A,N/A,N/A,N/A,N/A,"480 S Los Angeles Street , 131, Los Angeles, California 90013, USA",https://www.facebook.com/smarttechwirelessLA/,N/A,yes
Smart Wireless Parts,Global distributor of mobile device parts. We are one of the largest replacement parts distributors in the nation and supply a growing list of reputable service and repair centers with top quality components.,no,yes,N/A,N/A,1 559.362.6817,smartwirelessparts@gmail.com,N/A,"1500 South Mooney Boulevard STE #5
 Visalia, CA 93277, USA",N/A,https://www.smartwirelessparts.com/,yes
Sunwireless Inc,"Sun Wireless carries the Hot, Quality, iPhone, Blackberry, Samsung, LG, Droid, Huawei & Other Cell Phone accessories for the major cell phone carriers in North America: AT&T, MetroPCS, Cricket, Verizon, Boost Mobile, T-Mobile, Virgin Wireless, US Cellular, Southern Linc and Sprint. We also have iPad accessories. ",no,yes,Yasmin Aslam,Sales Manager,N/A,N/A,https://www.linkedin.com/in/yasmin-aslam-b9a93367/,"45961 Warm Springs Blvd, Suite 6, Fremont, CA 94539, USA",N/A,https://www.sunwireless.com/,yes
Superior Communications,"As the nation’s largest mobile accessories distributor, Superior Communications has consistently pushed to evolve and stay nimble, a challenge that is wholly embraced by our organization.",no,yes,Sean Hashimoto,Vice President of Strategic Operations,877-522-4727,salesinfo@scp4me.com,https://www.linkedin.com/in/sean-hashimoto-873146117,"5027 Irwindale Ave., Suite 900, Irwindale, CA 91706, USA",https://www.facebook.com/superiorcommunicationsinc/,https://superiorcommunications.com/,yes
Topline Wireless,"Topline Wireless is your one stop shop for all things Cellular Accessories. whether it’s Cellular Accessories from our online retail shop, Bulk Iphone Chargers from our wholesale shop.",yes,no,N/A,N/A,925-998-6930,N/A,N/A,"392 West Larch Road #10 Tracy, California 95304, USA",https://www.facebook.com/toplinewireless,https://toplinewireless.com/,yes
Valor Communication,"Valor Communication Inc., maker of the MYBAT brand, is one of the largest cell phone accessories distributor and manufacturer worldwide.",no,yes,Albert Bitar,Chief Executive Officer,(877) 369-2088,facebook@2valor.com,https://www.linkedin.com/in/albert-bitar-735ba966/,"18071 Arenth Ave.,City of Industry, CA 91748, USA",https://www.facebook.com/Valorcommunication/,https://www.2valor.com/,yes
"Wireless Parts, Inc.","Wireless Parts, Inc. is the LEADER in Cell Phone Parts. Offering an extensive product range, our main series include  mobile phone LCD Screen, Housing Faceplace, Microphone, Speaker, Flex cable and more.",no,yes,N/A,N/A,714-966-9236 ,wpi9669236@gmail.com,N/A,"1906 S. Main Street, Santa Ana, CA 92707, U.S.A",https://m.facebook.com/profile.php?id=121010911290606&__tn__=C-R,https://www.wirelesspartsinc.com/,yes
"WirelessTree, Inc.","Located in sunny California, WirelelessTree is engaged in the wholesale of Boost and Virgin Mobile phone and tablet accessories.",yes,no,N/A,N/A,626.758.1668,sales@gowirelesstree.com,,"3018 Durfee Ave, Unit B, El Monte, CA. 91732, USA",N/A,https://www.gowirelesstree.com/,yes
Wireless World,"Wholesale supplier of new, brand name consumer electronics & cell phones.",yes,no,Sam Delafraz,CEO,(310) 721-4363,sam@wirelessworldshop.com,https://www.linkedin.com/in/sam-delafraz-95118b185/,"16141 Leadwell St. Van Nuys, CA 91406, United States",N/A,https://wirelessworldshop.com/,yes
Cases.com,"Cases.com is an online retailer of phone and tablet cases, providing customers with a wide selection of options for their devices. We pride ourselves in offering a wide range of brands and designs, from popular brands such as Apple, Samsung, and Motorola, to lesser-known devices. ",no,yes,N/A,N/A,1 877-255-8766,customerservice@cases.com,N/A,"P.O. Box 461716 Aurora, CO 80046, USA",https://www.facebook.com/casesdotcom,https://www.cases.com/,yes
CELLULAR EXCHANGE,"Store offering pre-owned cell phones for all carriers, accessories plus repair & trade-in services.",no,yes,N/A,N/A,303 420-0391,N/A,N/A,"6872 Wadsworth Blvd Arvada, CO 80003, USA",N/A,https://www.cellularexchange303.com/,yes
Colorado Gadget Fix,Cell phone store in Colorado,no,yes,N/A,N/A,1 719-309-6571,N/A,N/A,"3926 N Academy Blvd, Colorado Springs, CO 80917, United States",https://www.facebook.com/coloradogadgetfix,https://coloradogadgetfix.com/,yes
High Tides Wireless,"Cell phone store in Grand Junction, Colorado",no,yes,N/A,N/A,1 970-245-7994,phonemedicgjmall@gmail.com,N/A," 2424 U.S HIGHWAY 6 AND 50, Grand Junction, CO 81505, United States",https://www.facebook.com/hightidesaccessories/,http://www.hightideswireless.com/,yes
"Jestibo, LLC","Jestibo, LLC has the largest quality wholesale wireless accessories in Colorado to choose from with over 40,000 skus.
Jestibo has it all from Bluetooth products, licensed and after market phone covers, head sets, car chargers, travel chargers, screen protectors, FM Transmitters, batteries, and much much more. We supply for all makes and models of wireless phones and devices.",yes,no,Rami Merheb,CEO,1 720-262-8262,Getsmart5280@gmail.com,https://www.linkedin.com/in/rami-merheb-8738bb6/,"5773 Logan Street, Denver, CO 80216, USA",https://www.facebook.com/JestiboLLC/,N/A,yes
"Macalegin Electronics, LLC","Macalegin Electronics, LLC. is a U.S. based wholesale supplier of used smartphones, tablets, and other portable electronic devices. ",yes,no,Jonathan Kackstaetter,Chief Operations Officer,1 307-399-6642,sales@macaleginelectronics.com,https://www.linkedin.com/in/jonkackstaetter/,"800 Stockton Ave., Unit 1, Fort Collins, CO 80525, United States",https://www.facebook.com/macalegin/,https://www.macaleginelectronics.com/,yes
Mountain Communications,"Cell phone store in , Colorado",no,yes,N/A,N/A,1 970-949-6702,N/A,N/A,"41149 US-6, Avon, CO 81620, United States",N/A,https://www.mountaincomm.com/,yes
Planet Accessories,"Cell phone store in Aurora, Colorado",no,yes,Joel Boyd,General Manager,1 720-639-3935,JBoyd@wpgus.com,N/A,"14200 E Alameda Ave, Aurora, CO 80012, United States",https://towncenterataurora.com/social-media/facebook,https://towncenterataurora.com/stores/planet-accessories,yes
The Phone Plug,"We have new and used phones, cell phone accessories, and offer cell phone repairs.",no,yes,N/A,N/A,1 720-243-4528,thephoneplugco@gmail.com,N/A,"2155 S Chambers Rd, Aurora, CO 80014, United States",https://www.facebook.com/thephoneplugco,https://thephoneplug.co/,yes
Wireless Image,"Cell phone store in Denver, Colorado",no,yes,N/A,N/A,1 303-482-1288,wirelessimage09@yahoo.com,N/A,"1740 Federal Blvd #2, Denver, CO 80204, United States",N/A,http://wirelessimage.net/,yes
Accessorywiz,"AccessoryWiz is a leading online mobile accessories retailer in USA. Based in Connecticut since we started the company in 2011. Accessorywiz.com sells quality accessories for iPhone/iPad, Samsung Galaxy, Android devices, Tablets, as well as bluetooth earphones.",no,yes,N/A,N/A,N/A,cs@accessorywiz.com,N/A,"6 W River St, St# 69, Milford, CT 06460, USA",https://www.facebook.com/accessorywizz,https://accessorywiz.com/,yes
OdeMobile,OdeMobile is a leading online mobile accessories retailer in USA,no,yes,N/A,N/A,N/A,cs@odemobile.com,N/A,"PO BOX 701 North Haven, CT 06473, USA",https://www.facebook.com/odemobile/,https://odemobile.com/,yes
UZID,"UZID is a leading online mobile accessories retailer in USA. We offer the latest mobile phone and tablet accessories. Based in North Haven, Connecticut since we started the company in 2010. Uzid.com sells quality accessories for iPhone and Android devices, as well as bluetooth equipment. With a product range of over 100,000 different accessories we have a strong position on the mobile market.",no,yes,N/A,N/A,(203) 772-0038,store@uzid.com,N/A,"PO Box 3366, Milford, CT 06460, USA",https://www.facebook.com/uzidcom,https://uzid.com/,yes
Wireless Shop,Master Distributor for over 25 prepaid services including Lyca and H2O.,no,yes,Steven Butts,Regional Manager,1 877-926-5025,sales@jayscomm.com,N/A,"164 Central Street, New Britain, CT 06051, United States",https://www.facebook.com/wirelessshoponline,http://www.wirelessshoponline.com/,yes
Clark's Cellphone Corner,Cell phone & accessories store in Delaware,no,yes,N/A,N/A,1 302-407-5643,clarkscellphonecorner@gmail.com,N/A,"301 S Maryland Ave, Wilmington, DE 19804, United States",https://www.facebook.com/clarkscellphonecorner/,http://clarkscellphonecorner.com/,yes
eSecure Trading Inc,"eSecure Trading Inc is a leading independent wholesale trade marketplace for selling Tech & Smartphone Accessories, Macihne Parts and Auto to its wholesale trade members who sell on amazon and other e-portals across the web.",yes,no,N/A,N/A,540-456-1002,info@esecurecell.com,N/A,"913 N Market Street, Suite 200, Wilmington, DE 19801, USA",N/A,https://www.esecurecell.com/,yes
FashionTIY,Cheap cell phone cases wholesale distributors for boutiques USA. Our selection of bulk Mobile Phone Accessories is the perfect opportunity for your customers to express their individual styles. ,yes,no,Victoria Wen,Business Sales,1 302 5957992,tiy@fashiontiy.com,https://www.linkedin.com/in/victoria-wen-380ba8148/,"2035 Sunset Lake Rd, Ste B2 Newark, Delaware, USA",https://www.facebook.com/fashiontiy.inc,https://www.fashiontiy.com/,yes
First State Wireless,"Cell phone store in Delmar, Delaware",yes,no,N/A,N/A,(302) 846-9040,N/A,N/A,"38627 Benro Drive Suite 3 Delmar, DE 19940, USA",N/A,https://first-state-wireless.business.site/,yes
Seaford Wireless,"We specialize in providing excellent Customer service, wireless accessories, Cellphone Repairs, and services in the prepaid market.",no,yes,N/A,N/A,(302) 966-9720,seafordwireless@gmail.com,N/A,"32 S Market St, Seaford, Delaware 19973, United States",https://www.facebook.com/Sefordwireless/,https://seafordwireless.com/,yes
ZAGG Christiana Mall,"Supplier of mobile device screen protectors, cases, keyboards, chargers & accessories.",no,yes,N/A,N/A,1 516-554-6935,N/A,N/A," 132 Christiana Mall, Newark, DE 19702, United States",N/A,https://www.zagg.com/en_eu/us/en_us/store-finder,yes
A2 Trading Corp.,"A2 Trading Corp. is a Wholesale Distributor of Cell Phones, Tablets, Drones, Video Game Consoles, Digital Cameras, Computers and Consumer Electronics.",yes,no,Ariel Aharoni,President / CEO,1 (786) 252-9848,sales@a2tradingcorp.com,https://www.linkedin.com/in/arielaharoni/,"6020 NW 99th Ave, Unit #306, Doral, FL 33178, USA",https://www.facebook.com/a2tradingcorp,https://www.a2tradingcorp.com/,yes
Ace Wireless Winter Haven,"Cell phone store in Winter Haven, Florida",no,yes,N/A,N/A,1 863-258-6658,acewireless863@icloud.com,N/A,"1848 1st St N, Winter Haven, FL 33881, United States",N/A,http://www.ace863.com/,yes
BODEGA Premium Cellphone Boutique,"Cell phone store in Haines City, Florida",no,yes,N/A,N/A,1 863-210-8179,marinmobilemedia1@gmail.com,N/A,"344 E Main St, Haines City, FL 33844, United States",N/A,http://buybodega.com/,yes
Buku Wireless,We are a wholesale company that specializes in offering the most popular cell phone accessories for the most popular brands of cell phones and tablets.,yes,no,N/A,N/A,9547072079,bukuwireless@gmail.com,N/A,"4622 Hollywood Blvd, Hollywood,  FL 33021, USA",https://facebook.com/bukuwireless,https://www.bukuwireless.com/,yes
Cell Phone Parts Express,"The primary resource for wholesale cell phone parts, gadgets, tools, and solutions for the mobile repair industry.",yes,no,Alan Jaime,Sales Manager,954-393-0639,orders@cellphonepartsexpress.com,https://www.linkedin.com/in/alan-jaime-967055b3/,"2633 Park Ln, Hallandale Beach, Florida 33009, USA",https://www.facebook.com/CellPhonePartsExpress/,https://cpp-express.com/,yes
Cellular Parts Supply LLC,"Cellular Parts Supply is the worldwide wholesale distributor of repair parts and Accessories compatible with iPhone, iPad, and today's most popular devices. ",no,yes,N/A,N/A,N/A,info@cellularparts.supply,N/A,"11402 NW 41st St #211-624, Doral, FL 33178, United States",N/A,http://www.cellularparts.supply/,yes
"Cellular Wholesales, Inc","We are a wholesale and retail store, focused mostly on Cellphone accessories.",yes,no,Maria Gomez,Sales Executive,1 786-813-8406,contact@cellularwholesales.com,https://www.linkedin.com/in/maria-gomez-a8870b89/,"11401 NW 122nd St, Miami, FL 33178, United States",https://www.facebook.com/cellularwholesales/,https://www.cellularwholesales.com/,yes
CLC Miami,"CLC Miami founded in 1995, it specializes in distribution and export of Apple Iphones, Samsung, ZTE, Huawei and all low end phones.",no,yes,N/A,N/A,1 305.640.1803,sales@clcmiami.com,N/A,"11231 NW, 20 Street suite, 133 Miami, Florida 33172, USA",N/A,https://clcmiami.com/,yes
Digital Tech International,Digital Tech International is a leading global distributor of Wholesale Mobile Phones.,no,yes,Maryleni Riveiro,Account Executive,(305)-500-9611,sales@digitaltechmia.com,https://www.linkedin.com/in/maryleni-riveiro-853158126/,"8286 NW 14 ST | Doral, FL 33126, USA",https://www.facebook.com/Digitaltechmiaa/,https://www.digitaltechmia.com/,yes
Elite Cellular Corp,"We are an American wholesaler and distributor of cell phones, accessories and electronics founded in 2014 in the city of Miami-Florida.",yes,yes,N/A,N/A,17863542425,elitecellcorp@gmail.com,N/A,"3224 NW, 72 Ave, Miami, FL 33122, USA",https://www.facebook.com/EliteCellularCorp/,https://elitecellularcorp.com/,yes
Empire Telecom LLC.,EMPIRE TELECOM LLC. is a is a fast moving cutting edge organization dedicated to the fulfillment and distribution of mobile phones and devices.,no,yes,N/A,N/A,305-888-8485,sales@empiretelecom.net,N/A,"3560 Northwest 72nd Ave., Miami, FL. 33122, United States",https://www.facebook.com/empiretelecomllc/,https://www.empiretelecom.net/,yes
eWireless Inc.,"eWireless is one of the largest distributors in North America for mobile phones and accessories. We carry original and generic accessories for all phones. eWireless, as a company, has proven itself to its loyal customer base for having exceptional customer service and products.",no,yes,Susan Gonzalez,Sales Manager,305.888.2882,info@ewirelessusa.com,https://www.linkedin.com/in/susan-gonzalez-693b25114,"5001 NW 72nd AVE, Doral, FL 33166, USA",N/A,https://ewirelessusa.com/,yes
GoKrazy Wireless,GoKrazy Wireless is South Florida's Leading Wholesale Smart Phone parts distributor.,yes,no,Michael Sinno,CEO,1 954-379-8555,info@gokrazywireless.com,https://www.linkedin.com/in/michael-sinno-458a5a97/,"12240 SW 53rd St, Ste 509, Cooper City, Florida, United States",https://www.facebook.com/gokrazywireless,https://gokrazywireless.com/,yes
GS City Solutions,"GS CITY SOLUTIONS, is a global wireless company specializing in the wholesale marketplace of cellular phone accessories and parts.",yes,no,Gabriela Silva,Manager,786-212-0436,gabriela@gscitysolutions.com,https://www.linkedin.com/in/gabriela-silva-conde-a99a9b98/,"3438West 84th St Unit 102, Miami, Florida 33018, USA",https://www.facebook.com/pages/category/community/GS-City-Solutions-451300731623261/,http://www.gscitysolutions.com/,yes
Go Wireless For All,"Go Wireless for all is a trusted wholesale supplier for iPhone accessories, iPads and Samsung Parts.",yes,no,N/A,N/A,1 305-629-9711,N/A,N/A,"2800 NW 72nd Ave, Miami, FL 33122, United States",https://www.facebook.com/people/Go-Wireless-For-All/100069506027330/,https://www.gowirelessforall.com/,yes
"ifive wireless, inc","ifive wireless, inc is a wholesale distributor of mobile phones and accessories based out of Florida USA.",no,yes,Miko H.,Accounts Manager,1 (954) 613-4000,info@ifivewireless.com,https://www.linkedin.com/in/miko-h-256a9932/,"2300 N 23rd Ave, Hollywood, FL, 33020, USA",N/A,https://ifivewireless.com/,yes
iHeartWireless,iHeartWireless is a Wholesale Cellular and Tablet Accessories Distributor and Supplier. ,yes,no,Lili Xu,CEO - Founder,1.888.542.2031,iheartwireless@gmail.com,https://www.linkedin.com/in/lili-xu-b5070831/,"3701 Vineland Rd,
Orlando, FL. 32811
US",https://www.facebook.com/iHeartWireless/,https://www.iheartwireless.com/,yes
iMonster Parts,iMonster Parts® is one of the largest suppliers of Apple and Samsung replacement parts throughout South Florida and South America.,no,yes,N/A,N/A,1 786-409-4086,sales@imonsterparts.com,N/A,"2475 North West 95th Avenue Miami, Florida 33172, USA",https://www.facebook.com/imonsterpartsflorida/,https://www.imonsterparts.com/,yes
Issoy Inc.,"Issoy is a premium wholesale electronics supplier, located in the United States. We offer a wide range of quality electronics at reasonable prices, including replacement iPhone LCD Screens, laptops & computers, tablets, bulk cell phones (iPhones, Samsung, etc.), phone accessories (cases, wireless headphones, Bluetooth accessories, etc.), gaming keyboards and mice, WiFi routers, navigation systems, home wellness products (blood pressure monitors, foot massagers, etc), and personal protective equipment.",yes,no,Yossi Gershowitz,President,(917) 624-8868,Yossi@issoyinc.com,https://www.linkedin.com/in/yossi-gershowitz-46917891/,"1270 S. 13th Ave, Hollywood, FL 33019, USA",https://www.facebook.com/issoyinc,https://issoyinc.com/,yes
Jomanick USA,"The company specializes in wholesale distribution of original (OEM) mobile accessories and is an Official Authorized Distributor of Samsung, Motorola, Xiaomi, Ballistic, iLuv, Prodigee, Spigen, Naztech, Hypergear and others.",yes,no,Pedro Furiati,Account Executive,1.305.471.5212,sales@jomanickusa.com,https://www.linkedin.com/in/pedro-furiati-b4a91035/,"1550 NW 96th Ave, Doral, FL 33172, USA",https://www.facebook.com/people/Jomanick-USA-Shop/100067640136929/,https://www.jomanickusa.com/,yes
Just in Case,Cell phone accessory store in Florida,no,yes,N/A,N/A,(347) 998-6970,N/A,N/A,"140 University Town Center Drive Sarasota, FL 34243, USA",N/A,https://just-in-case-cell-phone-accessory-store.business.site/,yes
Licensed Accessories USA LLC,"Licensed Accessories USA is an innovative global distributor of mobile accessory brands, connected products and memory devices.",no,yes,N/A,N/A,N/A,contact@licensed-accessories.com,N/A,"113 Wild Forest Drive, 33837 Davenport, Florida, USA",N/A,http://licensed-accessories.com/,yes
Marvol JPS Inc,Original Mobile Phone Accessories Distributors,no,yes,N/A,N/A,1 (305) 358-4305,sales@marvol.com,N/A,"300 NE 75th Street, Unit # 104, Miami, FL 33138, USA",N/A,https://www.marvol.com/,yes
Mercury Cellular Export Corp.,"From our origin as a mobile phone wholesaler, we have grown to deliver a one stop shop on all gadgets and accessories ranging across cellphones, electronics, and beyond.",yes,no,N/A,N/A,1 (305)418-9335,info@mercurycellular.com,N/A,"4805 NW 79th Ave, Ste 12, Doral, Florida,  United States",https://www.facebook.com/MercuryCellularCorp/,https://www.mercurycellular.com/,yes
MIami Digicom Corp,Cellular Phone Wholesaler,yes,no,N/A,N/A,305.599.5281,sales@miamidigicom.com,N/A,"2920 NW 72 AVE, Miami, FL, United States",https://www.facebook.com/people/MIami-Digicom-Corp/100071186513163/,http://www.miamidigicom.com/,yes
NeedMoreParts,International iPhone & iPad parts wholesale distributor.,yes,yes,N/A,N/A,1 888-612-3667,sales@needmoreparts.com,N/A,"10300 NW 19th ST SUITE 111. Doral, FL 33172, USA",https://www.facebook.com/NeedMoreParts/,http://needmoreparts.com/,yes
NewTech Wholesalers,"NewTech Wholesalers is a wholesale distributor focusing on consumer electronics, home goods, health and beauty products, and so much more. ",yes,no,Isser New,Owner,(305) 563-4900,isser@newtechwholesalers.com,https://www.linkedin.com/in/isser-new-18839925,"1108 Kane Concourse Suite #201, Bay Harbor, FL 33154, USA",N/A,http://newtechwholesalers.com/,yes
OMS Mobile,"OMS Mobile offers you mobile phones, cell phones, smartphones, tablets, and accessories from all well-known manufacturers.",yes,no,N/A,N/A,1305-400-8488,info@omscell.com,N/A,"8217 NW 30th Terr, Miami, FL 33122, USA",N/A,https://www.oms-mobile.com/,yes
"PCS Wireless, Inc.","PCS Wireless, Inc. has been an industry leader in mobile phone distribution for over a decade. ",no,yes,Lazer Herson,President,1 973 805 7400,onlinehelp@pcsww.com,https://www.linkedin.com/in/lazerh,"5960 Miami Lakes Drive E, Miami Lakes, FL 33014, USA",https://www.facebook.com/PCSWireless,https://www.pcsww.com/,yes
PhoneSpot,"Cell phone store in Winter Haven, Florida",no,yes,N/A,N/A,863-656-1000,support@phonespotstore.com,N/A,"5999 Dundee Rd Suite #600 Winter Haven, Fl 33884",http://www.facebook.com/phonespotstore/,http://phonespotstore.com/,yes
PhoneStore USA,"PhoneStore USA is a wholesaler and distributor of high-quality New, Refurbished, and Used cellular phones and accessories.",yes,yes,Rayman Hassad,CEO,(954) 571-1970,rayman@thephonestoreusa.com,https://www.linkedin.com/in/rayman-hassad-a1411854/,"1700 Banks Rd Suite 20, Margate, FL 33063, USA",https://www.facebook.com/PhoneStoreUSA,http://phonestoreusa.com/,yes
"Qubocell, Inc.","QUBOCELL,INC is a wholesale distributor of mobile phones and accessories based out of Florida USA.",yes,yes,N/A,N/A,N/A,sales@qubocell.com,N/A,"2300 N 23rd Ave, Hollywood, FL, 33020, USA",N/A,https://qubocell.com/,yes
Reagan Wireless,"For over 23 years, our company has maintained a strong presence in the cellular phone distribution industry, building an impressive track record of corporate accomplishments in Florida and beyond.",no,yes,Daniel Kaufman,President & CEO,1-954-596-2355,sales@reaganwireless.com,https://www.linkedin.com/in/danielkaufmanreaganwireless/,"720 South Powerline Rd. Suite D, Deerfield Beach FL 33442, USA",https://www.facebook.com/reaganwireless,https://www.reaganwireless.com/,yes
Renovo Electronics,"RENOVO ELECTRONICS was founded in 2008 as a reliable provider of wholesale electronics. All our key staff has at least 15 years of industry experience. We provide new, refurbished, surplus, and used/tested wireless devices. Our offerings include cellular phones, smart phones, tablets, routers, air cards, USB modems, and other personal wireless devices

We are a distributor of OEM repair parts and accessories. We specialize in OEM LCD sets, digitizers, lens, housings, buttons, flex cables, and other repair parts from major manufacturers such as Apple, Samsung, LG, Nokia, and Sony Ericsson. We have OEM parts for iPhone, iPod, and iPad devices.",no,yes,Mauricio Mejia,Sales Manager,786-252-6390,mmejia@renovoelectronics.com,N/A,"13412 SW 65th Lane, Miami, FL 33183, USA",N/A,https://renovoelectronics.com/,yes
RepairPartsUSA.com,"RepairPartsUSA.com is your #1 source for wholesale iPhone parts, iPad Parts, iPod Parts & More!",yes,no,N/A,N/A,(888)992.3905,Questions@RepairPartsUSA.com,N/A,"10260 NW 47th St, Sunrise, FL 33351, USA",https://www.facebook.com/Repairpartsusa,https://repairpartsusa.com/,yes
Sentinatech,"Founded in 2016 by women executives and engineers, Sentinatech has grown to become a leading name in the wholesale of consumer electronics and mobile accessories. ",yes,no,Cristina Nordskog do Valle,CEO,1 786-660-2534,mysupport@sentinatech.com,https://www.linkedin.com/in/cristinadovalle,"2323 NW 82nd Ave, Miami FL 33122, United States",https://www.facebook.com/sentinatech/,https://sentinatech.com/,yes
SH Americas,SH AMERICAS is the leading open market distributor in Miami of mobile phone and wearable.,no,yes,Sunil Agrawal,CEO,1 305 592 1367,info@shamericas.com,https://www.linkedin.com/in/sunil-agrawal-55877556/,"8400 NW 33rd Street, Suite: 120, Miami, FL 33122, USA",https://www.facebook.com/shamericasllc,https://shamericas.com/,yes
"Shopsource, LLC","Shopsource is a direct importer & wholesaler specializing in general merchandise. Hats, Flags, Jewelry, Cell Phone Accessories, Outdoors, & more.",yes,no,N/A,N/A,213-440-0885,shopsourcellc@gmail.com,N/A,"9802 NW 80th Ave, G-57, Hialeah Gardens, FL 33016 United States",N/A,https://www.wholesalecentral.com/shopso0001/,yes
Skywire Communications Inc.,"At Skywire Communications we build towards our goal of becoming the most globally trusted and preferred distributor of mobile phones, accessories, wearables, tablets, laptops, gaming and IoT devices in the industry. ",no,yes,Raul Holguin,Managing Director,1-516-326-3800,info@skywirecomm.com,https://www.linkedin.com/in/raulholguin/,"1630 NW 108th Ave, Miami, Fl 33172, USA",https://www.facebook.com/SkywireCommunications,https://skywirecomm.com/,yes
Skycell Trading,We are wholesale distributors of cell phones for Latin America and the Caribbean.,yes,no,N/A,N/A,1 786-447-1987,sales@skycelltrading.com,N/A,"3232 NW 72nd Ave, Miami, FL 33122, United States",https://www.facebook.com/Skycell.Trading.LLC/,https://www.skycelltrading.com/,yes
Smartphones FL,"Smartphones is a leading distributor of cellphone accessories in Florida, focused in prepaid cellphone carriers, MetroPCS.",no,yes,N/A,N/A,(305) 944-9916,N/A,N/A,"15441 W Dixie Hwy, Unit 13, North Miami Beach, Florida 33162, USA",N/A,N/A,yes
Smart Telecomm LLC,"SMART TELECOMM is mainly focused on wholesale of brand new consumer electronics and mobile devices including but not limited to mobile phones, tablets, personal and laptop computers, wearable technologies, audio products, video game consoles and accessories and computer components.",yes,no,Ahmad Al-Thanayyan,Chief Executive Officer,1 305 988 9853,info@smarttelecomm.com,https://www.linkedin.com/in/ahmadal,"11431 Lakeside Dr #1304, Doral, FL 33178, USA",N/A,https://smarttelecomm.com/,yes
Solaris Wireless LLC,We are Miami based wholesale distributors of mobile phones and consumer electronics.,yes,no,Bivek Agrawal,"Director, Business Development",1 305-222-7353,sales@solariswireless.com,https://www.linkedin.com/in/bivek-agrawal-bbb312155/,"2561 NW 74th Ave, Miami, FL 33122, USA",https://www.facebook.com/solaris.wireless/,https://solariswireless.com/,yes
Solution Box L.L.C,"With more than 20 years of experience, Solution Box has been performing as an IT and Telecommunications Distributor delivering great results and increasing its presence and brands that represents.
Today Solution Box is being recognized as an easy Distributor to work with through streamline processes and outstanding customer service, representing TOP vendors like APC, Anviz, Aver, Axis Communications, Cambium Networks, Garmin, Grandstream, Aruba, Yeastar, Linksys, Hikvision, OnSSI, Garnet, Hyperlink - L-Com, iiToKi, Mikrotik, Olex.la, Visionxip, Pelco, Lexar, BELDEN, QNAP, Tp-Link,Ubiquiti Networks, Sangoma, Vxi and Watchguard.",no,yes,Eduardo Bicerne,General Director,1 305-722-3825,eduardo_bicerne@solutionboxusa.com,https://www.linkedin.com/in/eduardobicerne/,"7500 NW 25st, suite 9., 33122 Miami, Florida. USA",https://www.facebook.com/SolutionBoxLLC/,https://www.solutionboxusa.com/,yes
"STRAX Americas, Inc.","STRAX is a global leader in accessories that empower mobile lifestyles. 
In addition to own and licensed brands, STRAX distributes over 40 major mobile accessory brands and several Health & Wellness brands with an initial focus on personal protection equipment.",no,yes,Fredrik Öström,Regional Sales Manager - North America,1 305 209 4299,fredrik.ostrom@strax.com,https://www.linkedin.com/in/fredrik-%C3%B6str%C3%B6m-1878511/,"2606 NW 97th Ave., Doral, FL 33172, USA
",https://www.facebook.com/StraxAmericas/,https://www.strax.com/,yes
Sunset Cell Miami,"Sunset Cell Miami is mobile phones wholesale distributor. Our products include smartphones, tablets and accessories. ",yes,yes,N/A,N/A,1 305-951-9955,sales@sunsetcell.com,N/A,"10482 Northwest 31st Terrace, Miami, Florida 33172, United States",https://www.facebook.com/sunsetcellmiami,https://sunsetcell.com/,yes
Surplus Giant ,"For over 20 years, Surplus Giant has been the one-stop shop for all your wholesale electronics needs. From computer and cell phone accessories to drones and home security, we carry the best products from the world’s most trusted brands and deliver them to you at the absolute lowest price on the market.",yes,no,Nancy Landau,Sales and Director of Logistics,1 561-999-9995,nancy@surplusgiant.com,https://www.linkedin.com/in/nancy-landau-85538430,"900 E Atlantic Ave #12, Delray Beach, FL 33483, United States",https://www.facebook.com/surplusgiant/,https://www.surplusgiant.com/,yes
TG Wireless,TG Wireless is a leading global distributor of Wholesale Phones & Mobile Phone Accessories.,no,yes,Sam Hickson,CEO,1-847-613-4414,s.hickson@tgwirelessgroup.com,https://www.linkedin.com/in/samhickson/,"3401 N 29th AveHollywood, FL 33020, USA",https://www.facebook.com/TGWirelessGroup,https://tgwireless.com/,yes
TM Cell,"Established in 2004, TMCell is a direct distributor of wireless handsets, accessories and data products for all broadband technologies. With over 40 years of combined mobile industry experience plus our regional presence, TMCell is committed to serving Latin America and the Caribbean through long-term relationships with vendors and channel partners.",no,yes,Mario Ego-Aguirre,Managing Director,1 (305) 421-9938,sales@tmcell.com,https://www.linkedin.com/in/mario-ego-aguirre-10b2409/,"8800 NW 23rd Street, Miami, FL 33172, USA",https://www.facebook.com/TMCellUSA,https://tmcell.com/,yes
Todays Closeout - Wholesale Cell Phones,"Global Distribution of Wholesale Cell Phones. Today’s Closeout is an invitation only platform that provides access to a private community dedicated to providing its members with access to coveted wholesale cell phones, bluetooth headsets & mobile accessories merchandise at wholesale prices. ",yes,no,N/A,N/A,1 877-334-1782,info@todayscloseout.com,N/A,"Miami, FL, USA",https://www.facebook.com/TodaysCloseout/,https://www.todayscloseout.com/,yes
Totalynk,"Multi-brand distributor of mobile phones and consumer electronics for the LATAM and Caribbean markets, supplying wholesalers, online resellers, retail chains and network operators for over 13 years.",yes,yes,Andres Rodriguez,CEO,1 (305) 592-8011 ,hello@totalynk.com,https://www.linkedin.com/in/andres-rodriguez-totalynk/,"9655 NW 33rd St, Doral, FL 33172, United States",https://www.facebook.com/Totalynk/,https://totalynk.com/,yes
Ufone Parts Wholesale,We pride ourselves in providing the replacement parts for the latest cellular phones with the lowest prices and the fastest service.,yes,no,N/A,N/A,1 407-222-2662,sales@ufoneparts.com,N/A,"11709 S. Orange Blossom Trail, Suite 106, Orlando, FL 32837, USA",https://www.facebook.com/ufonepartswholesale/,https://ufoneparts.com/,yes
Viper Trade Group,"Viper Trade Group is a distribution and export company of cell phones and electronics for Latin America and the Caribbean. We distribute the most important brands in the market such as Apple, Samsung, Xiaomi, Alcatel, ZTE, Nokia, Motorola, Huawei, CAT, Sony, Nintendo, Lenovo, DELL, HP, Asus, JBL, Amazon, Google, LG, Infinix, Tecno and Umidigi.",no,yes,N/A,N/A,1 (305) 907-9100,sales@vipertrade.com,N/A,"8000 NW 31st Street, Unit 16, Doral, FL 33122, USA",N/A,https://www.vipertrade.com/,yes
Virtual Zone USA,"Virtual Zone is the #1 Worldwide Wholesale Electronics Distributor for Apple, Xiaomi, Samsung, ZTE, Nokia, Amazon, Google, Nintendo, etc.",yes,yes,Maria Lara,Founder and CEO,1-3055990778,info@virtualzoneusa.com,https://www.linkedin.com/in/maria-lara-aa455159/,"2350 NW 102nd Pl Doral, FL 33172, Doral, Florida, USA",https://www.facebook.com/virtualzonedistributor/,https://www.virtualzoneusa.com/,yes
Vitel Mobile Inc,"Established in 2009 by two partners with over 25 years of experience in mobile sales, distribution, and service, Vitel Mobile has become one of the largest open market GSM mobile phone distributors in Latin America. Our primary focus is open market sales to wholesalers and retailers alike.",no,yes,Reinel Perez,Business Development Manager,1 305 418-9790,info@vitelmobile.com,https://www.linkedin.com/in/reinel-perez-74028b173,"8925 NW 26th St, Doral, FL 33172, USA",https://www.facebook.com/VitelMobileInc/,https://vitelmobile.com/,yes
Viva Global,"Viva Global is a wholesale distributor of cellphone parts and it has grown over time as the wireless industry has advanced, gradually gaining its reputation as one of the most premier mobile repair parts distributors.",yes,yes,Sohad Delbani,Chief Executive Officer,1 (786) 871-7660,sohad@vivagl.com,https://www.linkedin.com/in/sohad-delbani,"2944 NW 72ND Ave, Miami, FL 33122, USA",https://www.facebook.com/viva.global.wholesale,https://www.vivagl.com/,yes
Wireless Next Inc,"In 2015 Wireless Next made a humble start in Miami, overcoming imposing challenges and emerged as leading distributors of cellular phones, tablets, accessories, IOT products and gaming consoles in United States and Latin America.",no,yes,Jodie Aboud,VP Marketing,1 305 406 9600,jodie@wirelessnext.com,https://www.linkedin.com/in/jodie-aboud-182b03b3/,"1600 NW 84th Ave Doral, Florida 33126, USA",https://www.facebook.com/wirelessnext,https://www.wirelessnext.com/,yes
WOW Wireless LLC,"WOW Wireless LLC is a wholesale Distributor of cell phones accessories, located in Delray Beach, Florida. We offer individual sales attention to wholesale & retail companies, with exceptional pricing and quality.",yes,yes,Fadi Suliman,CEO,1 561-270-3471,info@fromwow.com,https://www.linkedin.com/in/fadi-suliman-76a07aa9,"2201 NW Corporate Blvd. Suite# 102, Boca Raton, FL 33431, USA",https://www.facebook.com/wowwireless/,https://fromwow.com/,yes
XSI Wireless,"XSI Wireless is a Cell Phone, Tablet & Watch Accessories international Wholesale Company.",yes,no,Udi Yehezkel,Owner,1 954-350-2263,sales@xsiwireless.com,https://www.linkedin.com/in/udi-yehezkel-7b3a65172/,"201 E Hallandale Beach Blvd, Hallandale Beach, Florida, United States,",https://www.facebook.com/people/XSI-Wireless/100063680855414/,https://xsiwireless.com/,yes
Break 'N' Fix,Wholesale Supplier for Cell Phone Repair Part and Accessories.,yes,no,N/A,N/A,678-534-0335,Support@breaknfixatlcom,N/A,"5730 Buford Hwy, Suite J, Norcross GA 30071, USA
",https://www.facebook.com/BNFNorcross,https://breaknfixatl.com/,yes
Cellairis,Retail chain offering a variety of accessories & repair services for smartphones & tablets.,yes,no,N/A,N/A,1 678-422-0508,cc@cellairis.com,N/A,"1000 Southlake Cir, Morrow, GA 30260, United States",https://www.facebook.com/cellairis,https://www.cellairis.com/,yes
Cellphone World USA,Cellphone Replacement Parts and Accessories Wholesale.,yes,no,N/A,N/A,1 404-547-8786,info@cellphoneworldusa.com,N/A,"5226 highway 78, Stone Mountain, Georgia, United States",https://www.facebook.com/cellphoneworldusa/,https://cellphone-world-usa-wholesale-parts.business.site/,yes
CPG Wireless Wholesale,CPG Wireless Wholesale is the source to go to for mobile replacement parts at wholesale prices.,yes,no,Brian Alvarez,Owner,N/A,N/A,https://www.linkedin.com/in/brian-alvarez-48003aa1,"103 Old Winterville RdAthens, GA 30601, USA",N/A,http://cpgwireless.com/,yes
DLS WIRELESS & ACCESSORIES,"Cell phone store in Douglas, Georgia",no,yes,N/A,N/A,1 912-592-4034,N/A,N/A,"133 Bowens Mill Rd SE, Douglas, GA 31533, United States",http://www.facebook.com/pages/DLS-Wireless/267639186759525,N/A,yes
Dream Wireless,"Cell phone store in Norcross, Georgia",no,yes,N/A,N/A,1 626-820-1600,orderdreamwire@gmail.com,N/A,"5707 Buford Hwy NE, Doraville, GA 30340, USA",N/A,https://dreamwirelessga.com/,yes
Excell Wireless,"We are wholesaler of Cellphones, Cellphone Parts and Accessories. ",yes,no,N/A,N/A,(678) 694-1873,exwirelessatl@gmail.com,N/A,"5955 Jimmy Carter Blvd, Ste 120, Norcross, GA 30071, USA",https://www.facebook.com/exwirelessatl/,https://excellatlanta.com/,yes
Georgia Phone Case,GeorgiaPhoneCase.com is the biggest Online wholesale cellphone accessory outfit based in USA,yes,no,N/A,N/A,404-490-7360,info@georgiaphonecase.com,N/A," 5226 Stone Mountain Hwy, Stone Mountain, GA 30087, United States",N/A,https://www.georgiaphonecase.com/,yes
"Himalaya Wholesale, Inc","Himalaya Wholesale is the largest distributor and wholesaler in the Southeastern Region of the U.S.A. Some of our available wireless accessories include: cell phone cases, cell phone chargers, Cables, Bluetooth headsets, Bluetooth Speakers, and Tempered Glasses.",no,yes,N/A,N/A,803-727-9530,sales@himalayawholesale.com,N/A,"3290 Green Pointe PKWY NW, Suite 300, Norcross, GA 30092, USA",N/A,https://www.himalayawholesale.com/,yes
Injured Gadgets,"Injured Gadgets is the largest online wholesale distributor for cell phone, tablet, game console, and MacBook repair parts",yes,no,Aakshay Kripalani,CEO,(770) 674 1150,support@injuredgadgets.com,https://www.linkedin.com/in/aakshay-kripalani-58702987,"6141 Crooked Creek Rd.,  Norcross, GA 30092,  United States",https://www.facebook.com/InjuredGadgets,https://www.injuredgadgets.com/,yes
Lux Wireless,"Lux Wireless is a rapidly growing, premier full service cell phone accessory wholesaler and product manufacturer based out of Atlanta Georgia.",yes,no,Sean Davis,Managing Partner,1-855-589-9473,Sean@LuxWireless.com,https://www.linkedin.com/in/sean-davis-52844561/,"1920 Statham Dr, Statham, Georgia 30666, USA",https://www.facebook.com/LuxWireless/,https://www.luxwireless.com/,yes
Master Wireless,"Mobile phone repair shop in Sandy Springs, Georgia",no,yes,N/A,N/A,404-980-7573,masterwirelessgeorgia@gmail.com,N/A,"5300 Roswell Rd, Sandy Springs, GA 30342, United States",https://www.facebook.com/MasterWirelessGA,https://masterwirelessga.com/,yes
M Wireless ATL,Cell phone store in Georgia,no,yes,N/A,N/A,N/A,mwirelessatl@gmail.com,N/A,"1210 Rockbridge Rd Norcross GA 30093, USA",https://www.facebook.com/mwirelessatl/,https://mwirelessatl.com/#,yes
Neocellularparts.com,Neocellularparts.com is a Leading Wholesaler and Distributor for Cell Phone Repair Parts and Tools. ,yes,yes,N/A,N/A,(678)404-5669,sales@neocellularparts.com,N/A,"5730 Oakbrook Pkwy #120, Norcross, GA 30093, United States",https://www.facebook.com/neocellularparts/,https://neocellularparts.com/c,yes
"Phoneaholics Cell Phone Repair, Parts and Accessories",Mobile phone repair shop in Georgia,no,yes,N/A,N/A,(404)397-2273,sales@phoneaholicsatl.com,N/A,"6000 Dawson Blvd suite c, Norcross, GA 30093, United States",https://www.facebook.com/phoneaholics/,https://phoneaholicsatl.com/,yes
RGI Distribution,"We are a wholesale corporation in the U.S. based in Georgia that was established in 2007 as a small business that has grown tremendously over the years. We were among the early pioneers in cell phones, cell service and phone accessories.",yes,no,N/A,N/A,(678) 835-5533,online@rgidistribution.com,N/A,"1300 Peachtree Industrial Blvd #4110, Suwanee, GA 30024, USA",N/A,https://www.rgidistribution.com/,yes
Trybe Mobile,"Trybe Mobile is a mobile device product manufacturer and distributor through e-commerce and wholesale resources. We supply mobile devices and accessories, innovative electronics, and superior tech gear.",no,yes,N/A,N/A,1 864-777-0745,support@trybemobile.com,N/A,"10800 Alpharetta Hwy, Roswell, Georgia, 30076 USA",https://www.facebook.com/shoptrybemobile,https://trybemobile.com/,yes
Wholecell Phones & Accessories,We offer wholesale and retail customers at one-stop destination for buying the latest cell phone accessories. ,no,yes,N/A,N/A,770-368-8866,info@wholecellusa.com,N/A,"6455 Jimmy Carter Blvd, Norcross GA 30071, USA",https://www.facebook.com/wholecellusa/,https://wholesalecellphoneaccessories.wordpress.com/,yes
Wireless One,"Wireless provider supplying plans, plus a range of phones, devices & accessories.",no,yes,N/A,N/A,1 912-385-4099,N/A,N/A,"4420 Altama Ave suite 40, Brunswick, Georgia, United States",https://www.facebook.com/Wireless-One-Brunswick-Ga-103057955642039/,N/A,yes
"iCell Hawaii Maui’s Best Cell Phone Repair, Sales and Accessories Center","We are the best Maui cell phone repair , screen repair and cell phone accessories store on the island.",yes,yes,N/A,N/A,1 (808) 727-2784,maui@icellhi.com,N/A,"275 W Ka'ahumanu Ave Sears Wing across from Ben's Franklin Kahului, Hawaii 96732, USA",https://www.facebook.com/icellhi,https://www.icellhawaii.com/,yes
JayTee Shop,"Cell phone accessory store in Honolulu, Hawaii",no,yes,N/A,N/A,(424) 257 - 5433,jaytee.shop1@gmail.com,N/A,"333 Ward Ave, Ste. 3, SHOP #83 Honolulu, Hawaii 96814, USA",https://www.facebook.com/Jaytee.shop1/,https://www.jaytee.shop/,yes
TCA Wireless,"Basic shop that sells cell phones & accessories, plus provides repair & unlocking services.",no,yes,Chris Fujiyama,Owner,1 808-944-8886,chris@tcawireless.com,https://www.linkedin.com/in/chris-fujiyama-278689132/,"Inside Don Quijote, 801 Kaheka St, Honolulu, HI 96814, United States",N/A,https://tcawireless.com/,yes
TransPac Group,"Hawaii specialty wholesale distributor of modern nicotine, grocery, candy and snacks, toys, mobile accessories, health and beauty, and prepaid products and services.",no,yes,N/A,N/A,808.529.0999,info@transpacgroup.net,N/A,"99-1245 Waiua Place, Suite C, Aiea, HI 96701, USA
",N/A,https://www.transpacgroup.net/,yes
Tricked Out Accessories and Phone Repair,"Since we have been involved in the phone accessories business for so long, we have learned much about what the best quality of accessories and parts are",yes,yes,Jimmy G,Founder ad CEO,1 808-734-6333,contact@trickedoutonline.com,N/A,"4211 Waialae Ave # 1190, Honolulu, HI 96816, United States",https://www.facebook.com/trickedoutaccessories,http://www.trickedoutonline.com/,yes
Upnext Wireless,"selling unlocked phones & accessories, such as cases, also offers repair services.",yes,yes,N/A,N/A,1 808-591-0025,info@upnextwireless.com,N/A,"1027 Pensacola St Ste B Honolulu, HI 96814, USA",https://www.facebook.com/upnextwirelesscom,https://www.upnextwireless.com/,yes
Accessories 4 U,Accessories 4 U is known not only for its affordable prices but also the friendly customer service given when you walk through the door.,no,yes,N/A,N/A,1 208-206-4345,hijk123lmnop@yahoo.com,N/A,"191 Lomax St, Idaho Falls, ID 83401, United States",https://www.facebook.com/Accessoriess4U/,http://www.accessories4u.com/,yes
eTECH,"eTECH Accessories carries a complete line of accessories for ALL wireless devices including cases, charging solutions, and hands-free devices for ALL carriers and brands, including Apple, Android, Motorola, LG, Samsung, Casio, and HTC",yes,yes,N/A,N/A,1 208-542-9700,asketech@etechcells.com,N/A,"2079 E 17th Street Idaho Falls, ID 83404, USA",https://www.facebook.com/etechaccessories,https://www.get-etech.com/,yes
Aone Wholesale Chicago,Aone Wholesale Chicago has been established to provide our customers with best and high quality in spares with low prices for your phones.,yes,no,N/A,N/A,1-(832)661-5075,aonechicago@gmail.com,N/A,"3823 – 3825 West Lawrence Ave, Chicago, IL 60625, USA",N/A,https://www.aonewholesalechicago.com/,yes
CMPSPRO.com,"CMPSPRO.com has a full line of wholesale repair parts for Apple, Samsung, and LG.",yes,no,N/A,N/A,1 773-628-7318,info@cmpspro.com,N/A,"5255 N Milwaukee Ave, Chicago, IL 60630, United States",N/A,https://cmpspro.com/,yes
Direct Mobile Accessories,"We are the ONLY authorized online reseller in the U.S. and Canada of Clear-Coat, Style Skins, Fusion and other Mobile Outfitters products.",no,yes,Christopher Peters,Co-Founder,1 847-220-8648,support@directmobileaccessories.com,N/A,"5410 Newport Drive, Suite 28, Rolling Meadows, IL 60008, USA",https://www.facebook.com/directmobileaccessories,https://directmobileaccessories.com/,yes
E-Wireless Solutions Inc.,"E-Wireless Solutions Inc. is a professional factory direct manufacturer, importer and distributor offering thousands of accessories for all the top brands. We feature accessories for Samsung, apple iPhones, iPOD, iPAD, MP3, Motorola, LG, HTC and many more. Some of our available wireless accessories include: cell phone covers, cell phone chargers, cell phone pouches, bluetooths, Headsets, USB Cables, Adaptors, Aux cables and much more.",no,yes,N/A,N/A,(872)-208-6684,ewirelesssolutions@hotmail.com,N/A,"3812 W Lawrence Ave, Chicago IL, 60625, USA",https://www.facebook.com/ewirelesssolutions/,http://ewirelesssol.com/,yes
JETech,Online retailer platform offerings multi-category mobile accessories,no,yes,N/A,N/A,N/A,support@ijetech.com,N/A,"Illinois, US",https://www.facebook.com/jetechUS/,https://www.ijetech.com/,yes
Manee cellular,"Manee cellular is a large distributor, wholesaler and retailer for cellular accessories carrying all",yes,yes,N/A,N/A,847-983-4116,sales@masportsusa.com,N/A,"6601 N Lincoln Avenue, Lincolnwood, IL, United States",https://www.facebook.com/maneecellularusa,https://www.maneeusa.com/,yes
MA Sports USA Inc,The largest wholesaler of cellular accessories in Illinois.,yes,no,N/A,N/A,847-983-4116,sales@masportsusa.com,N/A,"3730 W. Devon Ave., Unit #2, Lincolnwood, IL60712, USA",N/A,http://www.merchantaccessories.com/,yes
Mobilution International Inc.,Mobilution has been a master dealer and wireless wholesaler for 20 years. We distribute cellular phones and a wide variety of cellphone accessories.,yes,yes,Sam Yum,Owner,847-763-7717,sales@mobocell.com,https://www.linkedin.com/in/sam-yum-4186012a/,"5655 W. Howard St., Niles, IL 60714, USA",N/A,https://www.mobocell.com/,yes
ReVamp Wholesale,"ReVamp Wholesale is the distribution arm of ReVamp Electronics LLC. This part of the company is focused on the distribution of wireless repair parts, pre-owned devices & accessories.",no,yes,Anant Handa,Founder & CEO,1 312-508-5499,anant.handa@revampwholesale.com,N/A,"344 N Ogden Ave, Chicago, IL 60607, United States",https://www.facebook.com/revampwholesale,https://www.revampwholesale.com/,yes
SaBu Accessories Chicago,We are local cellular accessories wholesaler in Chicago.,yes,no,N/A,N/A,1 708-628-7799,N/A,N/A,"5277 North Elston Ave, Chicago, Illinois, USA",https://www.facebook.com/SabuChicago/,N/A,yes
UScellular,"Provider offering wireless plans, phones & devices, plus accessories for home & car connectivity.",no,yes,N/A,N/A,N/A,N/A,N/A,"8410 W. Bryn Mawr Ave.
Chicago, IL 60631-3486, USA",https://www.facebook.com/USCellular,https://www.uscellular.com/,yes
Vertex Wireless,"Vertex Wireless is a direct OEM distributor of mobile devices, smartphones, tablets, wearables, and IoT hardware.",no,yes,John Wessel,Chief Executive Officer,(630) 293-6300,j.wessel@vertexwireless.com,https://www.linkedin.com/in/john-wessel-2b121a2/,"500 Wegner Drive, West Chicago, IL 60185, USA",https://www.facebook.com/vertexwireless,https://www.vertexwireless.com/,yes
Whole Cell Accessories,Whole Cell Accessories offers hundreds of Accessories for Cell Phones and other electronic devices at a discounted price.,yes,yes,N/A,N/A,17084743333,N/A,N/A,"17105 Torrence Ave, Lansing, IL 60438, United States",https://www.facebook.com/WcellCH/,http://wholecellonline.com/,yes
Xentris Wireless LLC,"Your full service manufacturer and distributor
of premium quality mobile accessories.",no,yes,David Bailey,President and CEO,844.936.8747,customerservice@xentriswireless.com,https://www.linkedin.com/in/david-bailey-6a341872/,"1250 N Greenbriar Dr, Addison, IL, Illinois, United States",https://www.facebook.com/xentriswireless,https://xentriswireless.com/,yes
WeFix Wireless,"We're now the largest and most dependable wholesale supplier in the mid-west of repair parts for iphone, ipod, ipad, Samsung, LG, and cell phone replacement parts.",yes,no,N/A,N/A,(219) 805-2038,wefixwireless5659@gmail.com,N/A,"2109 SouthLake Mall, Merrillville , IN  46307, USA",https://www.facebook.com/wefixwireless16/,https://wefix-wireless.webnode.page/,yes
Associated Distributors,Associated Distributors supplies top quality Wavelength brand cellular accessories and Images brand premium sunglasses to the convenience store channel through wholesalers and we service retailers with highly trained direct store service (DSS) representatives. ,no,yes,Bert Reising,Senior Director of Associated Distributors Sales and Service - Lil' Drug Store Products,1.800.553.5022,info@associateddistributors.net,https://www.linkedin.com/in/bert-reising-a2b28712/,"9300 Earhart Lane SW, Cedar Rapids, IA 52404, USA",N/A,https://www.associateddistributors.net/,yes
Eternity Wireless,"Eternity Wireless is a wholesale cellular accessories company founded in 2001 and based in Mason City, Iowa. We have been leaders in the market for more than 15 years for the distribution of OEMs, branded and aftermarket accessories.",yes,no,Theresa Gapero,COO,1-833-594-0361,theresag@eternitywireless.com,https://www.linkedin.com/in/theresa-gapero-2991b8132/,"1604 S Pierce Ave, Mason City, IA 50401, USA",https://www.facebook.com/eternitywireless,https://www.eternitywireless.com/,yes
Cell Phone Shop,"Cell phone store in Harrodsburg, Kentucky",no,yes,N/A,N/A,1 859-605-2060,N/A,N/A,"695 S College St, Harrodsburg, KY 40330, United States",N/A,https://cellphoneshops.business.site/,yes
LA Phone & Vapes,"Cell phone store in Pineville, Louisiana",no,yes,N/A,N/A,(318) 528-8981,N/A,N/A,"2990 Louisiana 28 Pineville, LA 71360, USA",N/A,https://la-phone-accessories.business.site/,yes
Phone Stop,"Cell phone store in Lafayette, Louisiana",no,yes,N/A,N/A,(337) 501-1229,N/A,N/A,"200 Production Drive #1 Lafayette, LA 70508, USA",N/A,https://phonestop-cell-phone-store.business.site/,yes
Wireless Accessories,Wireless Acessories is the fastest growing retailer for cellular and smart-phone accessories.,yes,yes,Meraj Mitha,CEO,972-488-3333,meraj@wirelessaccessoriesonline.com,https://www.linkedin.com/in/meraj-mitha-7811642b,"2601 Preston Rd, Frisco, TX 75034, USA",N/A,http://wirelessaccessoriesonline.com/,yes
Mr Case & Fix,"At Mr. Case & Fix, our goal is clear: to become the best Bring the fastest cell phone repair and accessories shop in the Frederick/Hagerstown area. ",no,yes,N/A,N/A,1 240-397-8366,mesmesg.y@gmail.com,N/A,"5500 Buckeystown Pike, Frederick, MD 21701, United States",N/A,https://mesmesgy.wixsite.com/website,yes
Simple Cell,We are a re-commerce company that purchases overstock inventory and customer returns from huge national distributors and big box retailers.,no,yes,N/A,N/A,443 991 8963 ,info@simplecellinc.com,N/A,"1533 Progress Way, Ste. 116 Eldersburg, MD 21784, USA",https://www.facebook.com/simplecellinc,https://simplecellshop.com/,yes
Cell Fashion,We have all varieties of cases with the different colors including 𝑻𝑬𝑴𝑷𝑬𝑹𝑬𝑫 𝑮𝑳𝑨𝑺𝑺 to protect your phone,no,yes,N/A,N/A,(978) 777-3650,N/A,N/A,"100 Independence Way Danvers, MA 01923, USA",N/A,https://cell-fashion-cell-phone-store.business.site/,yes
Dream Parts LLC,"Dream Parts  is US local supplier for cell phone repair replacement  parts, mainly are IPhone LCD ,IPhone flex, Phone  back housing etc.",no,yes,N/A,N/A,N/A,sales@dream-parts.com,N/A,"200 Commonwealth Ave,Boston 02116 MA, USA",N/A,https://dream-parts.com/,yes
ZAGG Burlington,"ZAGG Burlington is a ZAGG retailer and authorized warranty servicer. Shop InvisibleShield screen protectors, Gear4 cases, mophie power banks & battery cases, ZAGG keyboards, BRAVEN speakers, and IFROGZ headphones to keep your device protected and powered.",no,yes,N/A,N/A,801-263-0699,burlington@zaggretail.com,N/A,"75 Middlesex Turnpike Burlington, MA 01803",https://www.facebook.com/ZAGGStore/,https://www.zaggfranchise.com/burlington-ma/,yes
A2z Wireless Wholesale Inc,We are a US based wireless wholesale company that purchases and resells wireless devices.,yes,no,Mike Barghouty ,Manager,(313) 699-6660,N/A,https://www.linkedin.com/in/mike-barghouty-b3552772/,"7112 Hartwell St, Detroit , Michigan 48126, USA",N/A,http://a2zwireless.net/,yes
"Advantage Cellular Wholesale, Inc.",We are a Detroit-area based company that provides individual and wholesale cell phone solutions for people and companies of all sizes. ,yes,no,N/A,N/A,N/A,N/A,N/A,"33060 Northwestern Hwy, Ste 200, West Bloomfield, MI 48322, USA",N/A,http://advantagecellularwholesale.com/,yes
Global Mobile,"We are a locally owned and operated smartphone repair shop specializing in the immediate professional repair of mobile phones, smartphones and tablets for many manufacturers.",no,yes,N/A,N/A,(989) 759-9303,globalmobile989@gmail.com,N/A,"2137 Warwick St.Saginaw, Michigan 48601, USA",https://m.facebook.com/globalmobile989/,https://globalmobile989.com/,yes
"Group Vertical, LLC.","Group Vertical was established in 2009 and has grown to become the leader in wholesale replacement parts for cell phones, tablets, laptops, accessories, and more.",yes,no,Ryan Schut,Founder & CEO,1 616-425-9141,sales@groupvertical.com,https://www.linkedin.com/in/ryanschut/,"678 Front Ave NW, STE 135, Grand Rapids, MI 49504, USA",https://www.facebook.com/GroupVertical/,https://groupvertical.com/,yes
iNerdz Parts,iNerdz Parts is a wholesale company that sells high quality cell phone parts and tools.,yes,no,N/A,N/A,(888) 520-6373,sales@inerdz.com,N/A,"44640 Morley Drive, Clinton Township, Michigan 48036, USA",https://www.facebook.com/inerdzparts/,https://www.inerdzparts.com/,yes
Legend Distributors,"Legend Distributors is a distribution company that has been operating in the Metro Detroit Area for 30+ Years. We sell wholesale goods to C-Stores, Gas Stations, Car Washes, and Wholesalers. These goods include Cell Phone Accessories, Little Trees, Fragrance Oils, and much more.",yes,yes,Adnan Yono,Owner,1 248-915-8950,angeloyono1@gmail.com,N/A,"8072 E 9 Mile Rd Warren MI 48089, United States",https://www.facebook.com/people/Legend-Distributors/100084246536566/,https://legenddistributors.com/,yes
Mobile Defenders,Mobile Defenders provides the latest replacement parts for all the top phones and tablets.,no,yes,Gaurav Kaushik,Managing Director,616-551-2286,sales@mobiledefenders.com,https://www.linkedin.com/in/gaurav-kaushik-33593016/,"6155 East Paris SE, Suite 130, Caledonia, MI 49316, USA",https://www.facebook.com/MobileDefenders/,https://www.mobiledefenders.com/,yes
Renovo Electronics,"RENOVO ELECTRONICS was founded in 2008 as a reliable provider of wholesale electronics. All our key staff has at least 15 years of industry experience. We provide new, refurbished, surplus, and used/tested wireless devices. Our offerings include cellular phones, smart phones, tablets, routers, air cards, USB modems, and other personal wireless devices

We are a distributor of OEM repair parts and accessories. We specialize in OEM LCD sets, digitizers, lens, housings, buttons, flex cables, and other repair parts from major manufacturers such as Apple, Samsung, LG, Nokia, and Sony Ericsson. We have OEM parts for iPhone, iPod, and iPad devices.",no,yes,Gary A. Straus,Principal,586-907-5323,gstraus@renovoelectronics.com,N/A,"3692 Oakleaf Drive, West Bloomfield, MI 48324, USA",N/A,https://renovoelectronics.com/,yes
True Mobile Buyback,"True Mobile Buyback is a distributor and reseller of new, used or broken consumer electronics",no,yes,Seth Myers,President,(231) 224-6120,contact@truemobilebuyback.com,https://www.linkedin.com/in/seth-myers-07a9b475,"118 E Harris St # 11. Cadillac, MI 49601-5000, USA",N/A,https://www.truemobilebuyback.com/,yes
Wireless Revolution,"Cell phone& accessories store in Wyoming, Michigan",no,yes,N/A,N/A,1 616-531-5500,N/A,N/A,"2799 Clyde Park Ave SW, Wyoming, MI 49509, United States",N/A,https://dealer.sprint.com/wireless-revolution,yes
Wireox LLC,"Since 2007 Wireox has been serving consumer electronic wholesalers. Consider Wireox as a ""One Box Wireless Solution"" for all your mobile phone accessories wholesale needs.",yes,no,Shadan Rashid,Sales Associate,1 (248) 565-4606,sales@wireox.com,https://www.linkedin.com/in/shadan-rashid-19ab91201/,"852 E 9 Mile Road, Ferndale, MI-48220, USA",https://www.facebook.com/people/Wireox-LLC/100066343847587/,http://www.wireox.com/,yes
Verizon Wireless,"Telecommunications store offering cell phones, wireless plans, accessories & more.",yes,yes,Hans Vestberg,Chairman and Chief Executive Officer,507-237-5411,N/A,N/A,"18 4th St, Gaylord, MN 55334, United States",https://www.facebook.com/verizon,http://www.verizonwireless.com/b2c/storedetail/Minnesota/Gaylord/I117738,yes
Wireless World - Verizon Authorized Retailer,Wireless World independently operates this page and is an independently owned and operated Verizon Authorized Retailer.,yes,no,N/A,N/A,1320-732-6888,info@wirelessworldus.com,N/A,"728 Commerce Rd, Long Prairie, MN 56347, USA",https://www.facebook.com/WirelessWorldUS,https://www.wirelessworld.com/,yes
AT&T Store,"Retailer providing wireless plans & a range of phones, devices & accessories",yes,no,N/A,N/A,1601-822-2266,N/A,N/A,"2303 MS-39, Meridian, MS 39301, United States",https://www.facebook.com/ATT,https://www.att.com/stores/mississippi/meridian/117593?source=E-g2s10000000000X&wtExtndSource=stores,yes
Skylink Wireless,"Skylink Wireless has been in the wireless business since 2001. Our business consists of the sale of Wireless Equipment, Services and Accessories. Our Business and Experience developed from retail to Wholesale and Distribution.
Skylink Wireless was master dealer and partner distributor for major carriers in the Saint Louis metropolitan area ( T-Mobile, Boost Mobile, Cricket Wireless, US Cellular Prepaid, ClearWire, Simple Mobile, Page Plus, Airvoice Wireless and more).
 On the 29th of August 2012 Skylink Wireless acquired its new world headquarter (101,000 Sq foot) facility, that will take Skylink Wireless to the next level in distribution channels for the wireless industry and consumer electronics reverse logistics.",no,yes,Ray Mohsen,Chief Executive Officer,1 (828) 759-5465,info@skylinkpcs.com,https://www.linkedin.com/in/skylinkwireless/,"4601 Riverview Blvd, St. Louis MO 63120, USA",https://www.facebook.com/SkylinkWireless/,http://store.skylinkpcs.com/,yes
Cell accessories,"All kind of phone cases are available from this place, you",no,yes,N/A,N/A,1417-396-3819,N/A,N/A,"101 N Rangeline Rd, Joplin, MO 64801, United States",http://www.facebook.com/phonefashionjoplin,N/A,yes
UScellular,we provide the best wireless products and customer service in our industry.,yes,no,N/A,N/A,1417-934-5529,consumerrights@uscellular.com,N/A,"412 US-60 Ste. A, Mountain View, MO 65548, United States",N/A,https://stores.uscellular.com/premier-wireless/about-us,yes
Empress Wholesale LLC,Wholesaler of Cellphone Devices and also Cellphone Accessories.,yes,no,Vanessa L. Garnet,Business Manager,N/A,N/A,N/A,"7000 W Sahara Blvd, Las Vegas, Nevada, USA",N/A,http://www.empresswholesusa.com/,yes
Mila Lifestyle Accessories,"We are proud Wholesale Suppliers and Distributors. We offer you mobile phone accessories and novelty gift items for you to supply your gas station quick-stop shop, retail store or pharmacy.",yes,yes,Mark Schuyt,Founder,702-685-3730,info@milawholesale.com,https://www.linkedin.com/in/markschuyt," 5818 W Spring Mountain Rd #216, Las Vegas, NV 89146, United States",https://www.facebook.com/milawholesaleaccessories,https://milawholesale.com/,yes
PhonePartPro.com,"PhonePartPro.com offers low cost, quality iPhone, Android, and Blackberry repair and replacement parts. Our products are priced at wholesale prices!",yes,no,Amna Younas,Customer Services Supervisor,725.444.8252,help@phonepartsusa.com,https://www.linkedin.com/in/amna-younas-889796138/,"4270 Cameron Street, Suite 3
Las Vegas, Nevada 89103, United States",https://www.facebook.com/PhonePartPro/,https://phonepartpro.com/,yes
PhonePartWorld.com LLC,"Phonepartworld is a wholesale distributor of original replacement parts and accessories for all mobile devices including iphone,ipad and samsung galaxy.",yes,no,N/A,N/A,(866) 322-4840,Support@phonepartworld.com,N/A,"2700 Las Vegas Blvd S Unit 1803, Las Vegas, NV 89109-1161, USA",https://www.facebook.com/phonepartworld/,https://www.phonepartworld.com/,yes
Cellular Depot USA,"Offering repair services, this bare-bones shop buys & sells mobile phones & accessories.",no,yes,N/A,N/A,702.878.7900,N/A,N/A,4113 W Sahara Ave LV NV 89102,N/A,http://cellulardepotusa.store/,yes
Yes of Course Android iPhone Repair,"Store offering a range of chargers, accessories & cell phones, including prepaid services.",no,yes,N/A,N/A,702-939-9993,varagon@yesofcourse.com,N/A,"4660 W Charleston Blvd, Las Vegas, NV 89102, United States",https://www.facebook.com/yesofcourselv/,https://www.yesofcourse.com/,yes
Cell Fashion NH,"Cell phone accessory store in Newington, New Hampshire",no,yes,N/A,N/A,603-334-9828,N/A,N/A,"50 Fox Run Rd, Newington, NH 03801, United States",N/A,https://thephoneguards.com/,yes
ZAGG New Hampshire,"Supplier of mobile device screen protectors, cases, keyboards, chargers & accessories",no,yes,N/A,N/A,603-222-2048,N/A,N/A,"1500 S Willow St, Manchester, NH 03103, United States",https://www.facebook.com/ZAGGStore/,https://www.zaggfranchise.com/new-hampshire-nh/,yes
Cell Revolution LLC,Mobile Phones & Accessories wholesaler and distributor at New Jersey,yes,yes,Fayaz Faris,Vice President,1 732-331-3823,luke@awsomepay.com,https://www.linkedin.com/in/fayaz-faris-0a23a571/,"2016 Woodbridge Ave, Edison, New Jersey 08817, USA",https://www.facebook.com/CellRevo/,N/A,yes
"Impact Cellular, Inc.",We are a premier cellular accessories distributor on many top shopping networks and a preferred cellular accessory provider on several internal vendor networks.,no,yes,Alan Ward,CEO,(800) 670-2377,info@impactcellular.com,https://www.linkedin.com/in/alan-ward-04670120,"147 Brower Ave, Edison, New Jersey, 08837, United States",https://www.facebook.com/ImpactCellularInc/,http://www.impactcellular.com/,yes
Mobilenzo,Mobilenzo is a US-based mobile device repair parts and accessories supplier.,no,yes,N/A,N/A,(201) 636-2330,sales@mobilenzo.com,N/A,"600 Hollister Rd, Teterboro, NJ 07608, USA",https://www.facebook.com/MobilEnzoWholesale/,https://www.mobilenzo.com/,yes
National Cellular,"National Cellular is a Manufacturer & Distributor of a wide range of wireless and consumer electronics accessories. With powerful brand names including Overtime, Delton and iFab. NC established a diverse portfolio of quality yet competitive priced products, such as: smartphone, tablet, audio and wireless accessories.",no,yes,Mark Grossman,President,(718) 369-9560,sales@natcellular.com,https://www.linkedin.com/in/magrossman/,"10 Mckinley Street, Linden, NJ 07036, USA",N/A,https://natcellular.com/,yes
PCS Wireless,"PCS Wireless is a global technology and logistics leader powering the secondary market for mobile phones, tablets, wearables and other related accessories. The leading international distributor for mobile devices.",no,yes,Sami Hanono,Director of Sales for US & Canadian Markets,1 973-805-7400,sales@pcsww.com,https://www.linkedin.com/sami-hanono-a39a3254/,"11 Vreeland Road, Florham Park, New Jersey 07932, USA",https://www.facebook.com/PCSWireless,https://www.pcsww.com/,yes
Phone LCD Parts,We provide wholesale cell phone replacement parts to organizations throughout the United States.,yes,no,Önder Sayar,Co-Owner,1 973-517-8787,info@phonelcdparts.com,https://www.linkedin.com/in/%C3%B6nder-sayar-4729a69b,"32 Riverview Dr, Wayne, NJ 07470, United States",https://www.facebook.com/phonelcdparts/,https://www.phonelcdparts.com/,yes
Prime Mobile Parts,"Prime Mobile Parts is the leading wholesale supplier for cell phone parts, Mobile repair and replacement parts and tools.",yes,no,Jamil Sadullayev,Owner,2018888440,jamil@primemobileparts.com,N/A,"247 Crooks Avenue Unit 3, Clifton, New Jersey, 07011, USA",https://www.facebook.com/primemobileparts,https://www.primemobileparts.com/,yes
S.M. Distribution,SM Distribution is a global distributor of high-quality electronics and smartphones.,no,yes,Simon Ganz,SVP Sales - Americas,732.414.2929,simon@smdistribution.us,https://www.linkedin.com/in/simon-ganz-632062187/,"1000 Towbin Ave.
Lakewood, NJ 08701, USA",N/A,https://smdistribution.co/,yes
US Mobile Phones Inc.,USMP is the world's most trusted Wholesale Mobile Supplier.,yes,no,David Mosseri,Founder and CEO,1 (844) 723-8600,david@usmphones.com,https://www.linkedin.com/in/davidmosseri,"New Jersey HQ 502 Jersey Ave. New Brunswick, NJ 08901, USA",https://www.facebook.com/usmobilephones,https://usmphones.com/,yes
VoiceComm,"VoiceComm is the premier distributor of smartphone, tablet, and mobile device accessories for the North American market. Our diverse, high profile product portfolio coupled with our commitment to serve has allowed us to quickly become the go-to destination for wireless accessories in the market.",no,yes,Kip Olmstead,Chief Executive Officer and Board Member,(800) 803-1321,sales@myvoicecomm.com,https://www.linkedin.com/in/kipolmstead/,"175 Derousse Ave, Suite 100, Pennsauken, NJ 08110, USA",N/A,https://www.myvoicecomm.com/,yes
Cell Accessories & Electronics,"CELLTRONICS was started with the name of “Cell Accessories” since 2012 as Retial Store. After years effort, we successfully build our relationship with customers by providing them quality products at competitive prices.",no,yes,N/A,N/A,575-914-9330,mycelltronics@gmail.com,N/A,"4501 N. Main, Mall Ste 14, Roswell, NM 88201, United States",https://www.facebook.com/CAnElectronics/,https://mycelltronics.com/,yes
8A Inc.,"8A INC. is a wholesaler/importer of cell phone cases, covers, and accessories . ",yes,no,N/A,N/A,718-386-8666,K19561130@gmail.com,N/A,"5207 Flushing Ave, Maspeth, New York, 11378, USA",N/A,https://8awholesale.com/,yes
All4Cellular,A4C is a leader in the consumers electronics and cellphone accessory industry.,no,yes,N/A,N/A,1 877-999-4235,support@a4c.com,N/A,"320 7th Ave Suite 260
Brooklyn, NY 11215, USA",https://www.facebook.com/A4C,https://a4c.com/,yes
A-Tech Wireless Corporation,"As a leading wireless accessories wholesaler, A-Tech Wireless Corporation specializes in offering our customers accessories directly from the factory at the most competitive prices.",yes,no,N/A,N/A,718-565-7888,sales@atechwireless.com,N/A,"70-01 51 Ave, Woodside NY 11377, USA",https://www.facebook.com/atechwireless/,http://www.atechwireless.com/,yes
B&H Cellular Wholesale Inc,B & H Cellular Wholesale Inc. operates as a distributor and supplier of wireless devices.,yes,yes,Victor Halabi,CEO and President,1 (347) 497-3981,victor@bandhcellular.com,N/A,"2238 Ocean Pkwy, Brooklyn, NY 11223, United States",https://www.facebook.com/people/BH-Cellular/100068844102663/,http://www.bandhcellular.com/,yes
Bestseli.com,Bestseli.com is your one-stop shop for wholesale mobile phones and mobile accessories.,yes,no,N/A,N/A,1(718)696-7101,info@bestseli.com,N/A,"222 East 8th Street, Apt 7A, Brooklyn, New York 11218, United States",N/A,https://bestseli.com/,yes
Brothers Wireless Multiservice Inc. ,Bros Phone Parts is a modern and reliable wholesale company that stands out for its quality and speed of delivery of cellphone repair parts.,yes,no,N/A,N/A,1 516-447-8141,info@brosphoneparts.com,N/A,"3001 Fulton St. Brooklyn, NY 11208, USA",https://www.facebook.com/Brosphonepartsusa/,https://www.brosphoneparts.com/,yes
Cellify Distributors,Cellify Distributors is a wholesaler and distributor of mobile phones and mobile devices.,yes,yes,Steven Ranna,President,1-718-934-2191,sales@cellify.us,https://www.linkedin.com/in/steveranna/,"2137 Knapp St, Ste A, Brooklyn, New York 11229, USA",N/A,https://cellify.us/,yes
CityWide Cell Parts,Cell Phone & Tablet Repair Parts At Wholesale Prices,yes,no,N/A,N/A,917.670.0453,citywidecellparts@gmail.com,N/A,"716 Morris Park Ave, Bronx, NY 10462, USA",https://www.facebook.com/citywide.cell.9,https://www.citywidecellparts.com/,yes
Elite Cellular Accessories Inc.,Elite Cellular Accessories Inc. is proud to be the nation's fastest-growing cellular phone accessory and novelty electronics manufacturer and distributor.,no,yes,Stephen Conlon,President,1-877-390-2502,info@elitecharger.com,https://www.linkedin.com/in/stephen-conlon-34189414/,"61 East Industry Court, Deer Park, NY 11729, USA",https://www.facebook.com/people/Elite-Cellular-Accessories-Inc/100070436465110/,https://elitecharger.com/,yes
Entro Wholesale,Entro Wholesale is a mobile accessories distributor.,no,yes,Abhi Bhatia,Chief Executive Officer,1 212-203-7521,sales@entrowholesale.com,https://www.linkedin.com/in/abhi-bhatia-342936159/,"129-09 26th Ave, Flushing, NY 11354, United States",https://www.facebook.com/Entrowholesale/,https://www.entrowholesale.com/,yes
FairFix,"FairFix is one of the leading wholesale distributors for cell phone, tablets and gadgets replacement parts, tools and accessories. As part of being in the sales and repair industry for many years, we decided to shift our focus from being vastly wide retailers to dealing directly as wholesalers to retailers and repair shops.",yes,no,N/A,N/A,1 347-277-2548,N/A,N/A,"1792 Broadway, Brooklyn, New York, USA",https://www.facebook.com/fairfixwholesale/,http://www.fairfixwholesale.com/,yes
GeveyPlus / USC Trading Inc,"We are located in New York and have been in Cellular Accessories Wholesale business for more than 10 years. The items we wholesale include: OEM Batteries, OEM Back covers, Cell Phone Cases, OEM Chargers, Data cable, OEM Headset, OEM Cellular LCD and much more.",yes,no,Marc Zhang,Owner,1(800) 336-4819,contact@geveyplus.com,https://www.linkedin.com/in/marc-zhang-755ba832,"5201 Flushing Ave, Maspeth NY 11378, USA",N/A,http://geveyplus.com/,yes
HLC Wholesale Inc.,"HLC Wholesale Inc. is a professional phone accessories wholesale supplier located in Manhattan, New York City. Based on our over ten years of  experience, we insist on the principle of providing high quality products at low costs to our customers.",no,yes,N/A,N/A,1 212-889-2899,info@hlcwholesale.com,N/A,"25 W 26th Street New York 10010, USA",https://www.facebook.com/hlcwholesale,https://hlcwholesale.com/,yes
Invention cell Wholesale Inc,"Wholesale Business which sells Smartphones & Accessories including Bluetooth Devices, Smart Watches, Tablets/ Notebooks.",yes,no,Ammar Masood,CEO,718.684.4848,info@inventioncell.com,https://www.linkedin.com/in/ammar-masood-73725986/,"1304 Beach Ave, The Bronx, NY 10472, USA",https://www.facebook.com/InventionCellWholesale/,https://www.inventioncell.com/,yes
Just Mobile Direct,"Just Mobile Direct is a rapidly growing distributor whose focus is on high-quality, high-end mobile devices and accessories.",no,yes,Abie Setton,VP Sales,(212) 333-4700,sales@justmobiledirect.com,https://www.linkedin.com/in/abie-setton-006128224/,"47 Walker St, New York City, New York, 10013, United States",N/A,http://www.justmobiledirect.com/,yes
KIKO Wireless Inc.,"KIKO Wireless Inc. is a professional cell phone accessories wholesale supplier located in New York City. We offer fashionable, innovative, and quality wholesale cellphone accessories.",yes,no,Andrew L.,Account Executive,212-686-2198,sales@kikowireless.com,https://www.linkedin.com/in/andrew-l-49296b57,"1345 Flushing Ave, Brooklyn, NY 11237, USA",https://www.facebook.com/kikowireless,https://www.kikowireless.com/,yes
Mobile Fix NYC,Mobile Fix NYC is a New York based business that aims to be the best wholesale cell phone spare parts supplier in the mobile phone repair industry.,yes,no,Mitan Chandihok,Operations Manager,1 516-513-1865,sales@mobilefixnyc.com,https://www.linkedin.com/in/mitanchandihok/,"740 Old Country Road, Westbury, New York 11590, USA",N/A,https://mobilefixnyc.com/,yes
Mobile City Online,"Throughout our ten years of service, Mobile City Online has been one of the fastest growing GSM cellular phone and accessories retailers on the web.",no,yes,N/A,N/A,1 212-964-4444,customerservice@mobilecityonline.com,N/A,"248 Lafayette St (Grd Floor), New York, NY, United States",https://www.facebook.com/mobilecityonline,http://www.mobilecityonline.com/,yes
Ice Mobility,A distributor and manufacturer of mobile device accessories.,no,yes,John Colaiuti,President,833.902.0994,info@icemobility.com,https://www.linkedin.com/in/john-colaiuti/,"610 Schelter Rd., Lincolnshire, IL 60069, USA",https://www.facebook.com/icemobility/,https://www.icemobility.com/,yes
Modes Wireless,"We’re the largest wholesaler and manufacturer of cell phone accessories for over 10 years based in New York, NY.",yes,no,N/A,N/A,917-488-2992 ,modeswirelesswal@yahoo.com,N/A,"PO BOX 268, West Babylon, NY, United States",https://fy-nl.facebook.com/modeswireless/,https://modeswireless.com/,yes
NCT USA,"Established in 2012, NCT is a Cellular Accessory and Electronics Distribution Company headquartered in Brooklyn, New York. We provide our clients and partners with access to a vast array of OEM/ Original Cellular accessories and parts, on a national and international scale.",no,yes,Brian Manyak,Sales Manager,(718) 576-6363,sales@nct-usa.net,https://www.linkedin.com/in/brian-manyak-31b438236/,"1768 East 49th Street, Brooklyn, NY 11234, USA",N/A,https://www.nct-usa.net/,yes
Oem Experts,Oem Experts is made up of  a team of professionals who have been in the wholesale wireless business for over 25 years. oem experts is a leader in selling brand name oem cellphone accessories.,yes,no,Bobby Hen,President & Chief Executive,718.859.2220,Bobby@oemexperts.com,N/A,"1020 East 48th Street, Brooklyn, NY 11203, USA",https://www.facebook.com/OEMexperts/,https://oemexperts.com/,yes
Phone Parts Distributors,"Phone Parts Distributors specializes in phone parts for all Apple, Samsung, and LG smartphones and Tablets.",no,yes,Avi Yosopov,CEO,1 888-224-9698,avi@phonepartsdistributors.com,https://www.linkedin.com/in/avi-yosopov-b246b6155,"10 Dubon Court, Suite 2, Farmingdale, NY, United States",https://www.facebook.com/phonepartsdistributors/,http://ww2.phonepartsdistributors.com/,yes
Phone Parts R Us,"Phone Parts R Us is a Leading Wholesale Supplier of Quality Cell Phone Parts for iPhone iPads iPods , Samsung Galaxy and LG Parts in the USA.",yes,no,John Yu,VP Sales,(718) 828-8878,sales@phonepartsrus.com,https://www.linkedin.com/in/john-yu-75453017a/,"967 Morris Park Ave, Bronx, NY 10462, USA",N/A,https://phonepartsrus.com/,yes
Reiko Wireless,"Since 2001, Reiko Wireless Inc. is a leading factory-direct seller to becoming one of the biggest wholesalers for cell phone accessory and gadget. We have been proudly offering thousands of accessories for all the top brands such as Apple, BlackBerry, HTC, LG, Motorola, Samsung, and many more. Our most popular accessories include cell phone pouches/covers/chargers, Apple certified accessories, and Bluetooth headsets.",yes,no,Zihao Liu,Head of Marketing and Sales,(631) 913-6700,sales@reikowireless.com,https://www.linkedin.com/in/zihao-liu-519b05125/,"55 Mall Dr., Suite C
Commack, NY 11725, USA",https://www.facebook.com/ReikoWirelessInc,https://www.reikowireless.com/,yes
Reliant Cellular,"Reliant Cellular, founded in April of 2015, is dedicated to providing high quality used and reconditioned wireless devices and accessories. Through a reliable network of suppliers and business partners, we are able to distribute a wide variety of Laptops, Notebooks, Mobile Devices, and Tablets.",no,yes,Jason Hamad,President/Owner,1 (800) 605-6335,sales@reliantcellular.com,https://www.linkedin.com/in/jasonhamad/,"7920 Belt Line Rd, Dallas, Texas, United States",https://www.facebook.com/reliantcell,https://www.reliantcellular.com/,yes
Sahara Wireless Inc.,"Started in 2012, we have a vision of providing a wide range of mobile phone accessories to North American region and Worldwide. ",no,yes,N/A,N/A,1-347-368-4371,info@nysahara.com,N/A,"182-20 Liberty Ave, Suite A2, Saint Albans, NY 11412, USA",https://www.facebook.com/saharawirelesssny,https://www.nysahara.com/,yes
Shun Li Mobile Accessories Inc,"The wholesaler of cell phone accessories based in New York, NY. Our products include cell phone cases, tablet cases, headphone, and the most popular accessories.",yes,no,N/A,N/A,1 347-854-8477,colin_gl89@hotmail.com,N/A,"5118 Grand Ave. STE 5, Maspeth NY 11378, USA",https://www.facebook.com/colinwireless/,https://www.colinwireless.com/,yes
Songs Wireless,Songs is a pioneer specialized in cell phone accessories wholesale for more than a decade. ,yes,no,Max Song,Internal Wholesaler,1 716-293-3171,sales@songsus.com,https://www.linkedin.com/in/max-song-5b5b47126/,"59-48 55th St, Maspeth, NY 11378, United States",https://www.facebook.com/people/United-Songs/100069287179973/,https://www.songsus.com/,yes
Spare Parts NYC,"Spare Parts is the online wholesale distributor for Apple, Samsung, HTC, LG, and Macbook repair parts, accessories, and tools. We deliver high-quality replacement parts for cell phone repair store owners as well as freelance mobile technicians and ""DIY""​ customers across the US",yes,no,Pearson Fields,Head Of Operations,1 646-580-4733,sparepartsnyc@gmail.com,https://www.linkedin.com/in/pearson-fields-66a019120/,"New York 10003, USA",https://www.facebook.com/sparepartsnyc,https://www.sparepartsnyc.com/,yes
Square Wireless inc,"Square Wireless is a professional smartphone accessories wholesale supplier located at 48-01 Metropolitan ave, NY.",yes,no,Jimmy D,Sales Contact,718-366-6336,Jimmy@sqwireless.com,https://www.linkedin.com/in/jimmy-d-12982976,"4801 Metropolitan Ave, Ridgewood, NY, 11385, U.S.A",https://www.facebook.com/people/Square-Wireless-Inc-Cellphone-Accessories-Wholesale-Store/100063366331247/,https://www.sqwireless.com/,yes
TG Wireless,TG Wireless is a leading global distributor of Wholesale Phones & Mobile Phone Accessories.,no,yes,Sam Hickson,CEO,1-847-613-4414,info@tgwirelessgroup.com,https://www.linkedin.com/in/samhickson/,"1642 Union St Ste 2B, Brooklyn, New York, 11213, United States",https://www.facebook.com/TGWirelessGroup,https://tgwireless.com/,yes
Universal Cellular Inc.,"At Universal Cellular Inc., we take pride in being one of New York city most reputable and reliable wholesale distributor for mobile devices.",yes,no,Joe J.,Business Development Executive,1 212-767-0055,Joe@UniversalcellularNYC.com,https://www.linkedin.com/in/joe-j-21614b9a/,"269 Avenue U, Brooklyn, NY 11223, United States",N/A,http://www.universalcellularnyc.com/,yes
Unlimited Cellular,Trusted Source of Mobile Accessories for over 15 Years!,no,yes,Mendel Mendelovits,CEO,845-625-2094,sales@unlimitedcellular.com,https://www.linkedin.com/in/mendel-mendelovits-6628643/,"PO Box 1071, Newburgh, NY USA",https://www.facebook.com/unlimitedcellularstore/,https://unlimitedcellular.com/,yes
WeSellCellular.com,"WeSellCellular.com is the premier global destination where wholesale cell phone distributors, retailers, repair shops, and smaller distributors can buy new and used cell phones wholesale.",yes,no,Scott Tepfer,President,1 (516) 334-6400,info@wesellcellular.com,https://www.linkedin.com/in/scotttepfer/,"150 Executive Drive, Suite Q, Edgewood, NY 11717, USA",https://www.facebook.com/wesellcellular,https://www.wesellcellular.com/,yes
WholesalePhoneAccessories.Com,WholesalePhoneAccessories.Com is largest Factory direct Wholesale supplier for Bulk Mobile Cellphone Accessories at cheap wholesale price.,yes,no,N/A,N/A,1 347-919-7977,support@wholesalephoneaccessories.com,N/A,"1 Radisson Plz New Rochelle, NY 10801, USA",https://www.facebook.com/WholesaleCellPhoneAccessories/,https://wholesalephoneaccessories.com/,yes
Zeetron,"Established in 2008, Zeetron quickly rose to the top as being the nation’s leading cell phone part manufacturer and wholesale distributor. We carry top quality parts for every Apple device, as well as parts for Samsung devices, at unbeatable prices.",yes,no,Yuriy Gutkin,Co-Founder,1 855-933-8766,N/A,N/A,"253 57th St, Brooklyn, NY 11220, United States",N/A,http://www.zeetron.com/,yes
ZAGG Staten Island,"Supplier of mobile device screen protectors, cases, keyboards, chargers & accessories.",no,yes,,,1 631-923-7159,victor@bandhcellular.com,N/A,"2655 Richmond Ave, Staten Island, NY 10314, United States",https://www.facebook.com/ZAGGStore/,https://www.zaggfranchise.com/staten-island-ny/,yes
Mobile Bling,"ShopMobileBling is the one stop shop for all of your smartphone, tablet, and cell phone accessory needs. Distributor of top brands like Otterbox, Samsung, etc.",no,yes,N/A,N/A,704-708-6712,shopmobilebling@gmail.com,N/A,"3022 Weddington Rd, Matthews, NC 28105, USA
",https://www.facebook.com/MobileBlingCLT/,https://www.shopmobilebling.com/,yes
The Cellular Resource,The Cellular Resource specializes in mobile device wholesale and ecommerce sales and refurbishment.,yes,no,N/A,N/A,N/A,support@thecellularresource.com,N/A,"Raleigh, NC, USA",N/A,https://www.thecellularresource.com/,yes
CellfxUSA,CellfxUSA is one of America’s largest wholesale wireless accessory distributors,yes,no,Arfa Chowdhury,Director Of Sales And Business Development,614-272-1600,N/A,https://www.linkedin.com/in/arfa-chowdhury-9357b719/,"1849 Westbelt Drive. Columbus, Ohio 43228, USA",https://www.facebook.com/cellfxusa/,https://www.cellfxusa.com/,yes
Cellpex,"Cellpex.com is the world’s largest business network for smartphones wholesale, tablets wholesale, accessories wholesale and other gadgets wholesale.",yes,no,Andras Majer,Account Manager,N/A,support@cellpex.com,https://www.linkedin.com/in/andrasm/,"Cincinnati, Ohio, United States",N/A,https://www.cellpex.com/,yes
Prepaid Ohio,At PrepaidOhio.Com we Buy/Sell all GSM (T-Mobile) and CDMA (Verizon) Phones. We also wholesale Mobile Accessories.,yes,no,Mike Barghouty,Manager,1 216-773-8000,prepaidohio@gmail.com,https://www.linkedin.com/in/mike-barghouty-b3552772/,"820 E 200th, St Cleveland, OH 44119, USA",https://www.facebook.com/people/Prepaid-Ohio/100070009486280/,http://www.prepaidohio.com/,yes
Provantage LLC.,Provantage.com is a leading independent dealer of information technology and personal computer products on the web. Provantage is an authorized Incipio dealer.,no,yes,N/A,N/A,800-336-1166,Sales@provantage.com,N/A,"7576 Freedom Ave NW, North Canton, Ohio 44720, USA",N/A,https://www.provantage.com/,yes
OnZ Wireless Inc.,Cell Phone Accessories Wholesale Distributor.,yes,no,Aaron Ong,President,(267) 388-5222,sales@onzwireless.com,https://www.linkedin.com/in/aaron-ong-487a1a56/,"315 W Olney Ave., Philadelphia, PA, 19120, USA",N/A,https://www.onzwireless.com/,yes
Polyconcept North America,"As a leading promotional products supplier, we provide everything from backpacks, water bottles and wireless power banks to stylish polos, jackets and hoodies – thousands of products in all, with the capability to imprint logos on each and every one of them.",no,yes,Walt McMann,EVP Operations,1 724-334-9000,customerservice@pcna.com,https://www.linkedin.com/in/walt-mcmann/,"400 Hunt Valley Road, New Kensington, PA 15068, USA",https://www.facebook.com/PolyconceptNorthAmerica,https://www.pcna.com/,yes
Cellular Sales,"As Verizon's premier retail partner, we sell the latest smartphones, tablets, smartwatches, and accessories from the world's most innovative brands.",no,yes,Dane Scism,Chief Executive Officer,(865) 584-7555,customerservice@cellularsales.com,https://www.linkedin.com/in/dane-scism-74965440/,"9040 Executive Park Drive Room 329, Knoxville, TN 37923, USA",https://www.facebook.com/cellularsales/,https://www.cellularsales.com/,yes
A1LCD,"We are a wholesale cell phone parts and accessories company located in Addison, Texas. We offering you the best quality phone repair supplies, including a lifetime warranty for our LCD phone screens.",yes,no,N/A,N/A,1 972-440-9030,info@a1lcd.com,N/A,"4113 Lindbergh Drive Addison, TX 75001, USA",https://www.facebook.com/a1lcd/,https://a1lcd.com/,yes
Angel Cellular,"Angel Cellular is one of the leading cellphone wholesale supplier in Texas. We deal in Apple, Samsung, Motorola, HTC, LG, Huawei, Nokia, ZTE, Blackberry, Windows Phone, Android and Sony Ericsson. ",yes,no,Bob Ali,President,(972)-248-8001,info@angelcellular.com,https://www.linkedin.com/in/bob-ali-a5265b67/,"620 Shiloh Road, Suite 100, Plano, TX 75074, USA",https://www.facebook.com/angelcellular/,https://www.angelcellular.com/,yes
Bargain Wholesale,High value source of wholesale Cell Phone Accessories.,yes,no,Adrian Moczygemba,Manager Bargain Wholesale Texas,1 281-347-5805,adrian.moczygemba@bargainw.com,N/A,"23623 Colonial Parkway, Katy, TX 77493, USA",https://www.facebook.com/bargainwholesaleca,https://www.bargainw.com/,yes
Captain Mobile Parts,Cell Phones Parts Accessories & Electronics Wholesale,yes,no,N/A,N/A,1 469-704-0634,sales@captainmobileparts.com,N/A,"11293 N Stemmons Fwy, Dallas, TX 75229, United States",https://www.facebook.com/captainmobileparts/,https://captainmobileparts.com/,yes
CellPhoneFix USA,We supply top quality cell phone and tablet repair parts to repair shops throughout the great state of Texas.,yes,yes,N/A,N/A,281-869-4392,cellphonefixusa@gmail.com,N/A,"3040 FM 1960, Suite 144, Houston, TX 77073, USA",https://www.facebook.com/people/Cell-Phone-Fix-USA/100063817884130/,https://cellphonefixusa.com/,yes
"Cellspare, LLC",Cellspare.com has been at the leading store of online mobile phone parts since 2004.,no,yes,N/A,N/A,N/A,info@cellspare.com,N/A,"119 Bristol Ct, Coppell, Texas, 75052, United States",https://www.facebook.com/cellsparestore,https://www.cellspare.com/,yes
CellularPort,"CellularPort is the largest and dominant store-front retailer and wholesaler of Mobile Phones and Phone Accessories in the Houston, Texas area. ",yes,no,Muhammad Zubair,Chief Operating Officer,1 832-613-4769,Info@celluarport.com,https://www.linkedin.com/in/muhammad-zubair-97b04473/,"9425 Mesa Dr Ste A, Houston, TX 77028, USA",https://www.facebook.com/CellularPort/,https://www.cellularport.com/,yes
Cellular Pros USA,The leading cell phone parts and accessories distributors.,no,yes,N/A,N/A,1 972-620-3700,cellularprosusa@gmail.com,N/A,"2099 Valleyview Lane, Suite # 180 Farmers Branch, TX 75234, USA",https://www.facebook.com/cellularprosusa/,https://cellularprosusa.com/,yes
Cellular Wear Wholesale,Cellular Wear is the leading provider of wholesale cellphone accessories for retailers seeking quality products..,yes,no,Nabeel Iqbal,President,(346) 249-5868,cellularwear@gmail.com,https://www.linkedin.com/in/nabeel-iqbal-19aa2a63/,"6959 Harwin Dr, Suite 110 in Houston, TX, USA
",https://www.facebook.com/cellularwearwholesale/,https://www.cellularwearhouston.com/,yes
DFW Cellphone & Part,DFW Cellphone & Parts is a cell phone parts and accessories wholesale company serving customers nationwide.,yes,no,N/A,N/A,4695719492,dfwimports@hotmail.com,N/A,"11500 Harry Hines Blvd Ste 112 Dallas TX-75229, USA",https://www.facebook.com/people/Cellphoneandpartscom/100064130889981/,https://cellphoneandparts.com/,yes
Digital Supply USA,Digital Supply USA has the biggest selection and highest quality phone repair and replacement parts store.,no,yes,Adam Vrbenec,Owner,(913)-369-4722,info@digitalsupplyusa.com,https://www.linkedin.com/in/adamvrbenec/,"539 W Commerce St, Dallas, Texas 75208, USA",https://www.facebook.com/digitalsupplyusa/,https://digitalsupplyusa.com/,yes
Elite Cell Parts LLC,The leading wholeseller of mobile spare parts in the USA. ,yes,no,N/A,N/A,1 713-492-0974,sales@elitecellparts.com,N/A,"6865 Harwin Dr. Ste C, Houston, Texas, United States",https://www.facebook.com/elitecellparts/,https://www.elitecellparts.com/,yes
"Elite Cellular, Inc.","Based in Dallas, Texas, Elite Cellular, Inc. is a global wholesaler and distributor of new and used electronics including cellular phones, accessories, set-top/DVR boxes, laptops, tablets and more. ",yes,yes,Aziz Jamal,Chief Executive Officer,(214) 956-0500,aj@elitecell.com,https://www.linkedin.com/in/aziz-a-j-jamal-94756246/,"2209 Regency Drive, Irving, TX 75062, USA",https://www.facebook.com/EliteSupplyChainSolutions/,https://elitecell.com/,yes
"eTech Parts Plus LLC
","Etech Parts Plus is the leading supplier of high-quality repair parts, tools, training, and knowledge. If you’re searching for the best wireless repair distributor, business mentor, and partner for your repair shop needs, look no further than eTech.",no,yes,Bryce Kelley,Vice President of Business Development,1 (800) 697-5583,sales@etechparts.com,https://www.linkedin.com/in/bryce-kelley-77b901116/,"2380 Dean Way, Suite 160, Southlake TX 76092, United States",https://www.facebook.com/etechparts,https://www.etechparts.com/,yes
Fast Phone Fix,"Fast Phone Fix is quickly becoming one of the largest smart device parts wholesalers / suppliers in the U.S. Headquartered in Dallas, TX,",yes,no,N/A,N/A,(972) 977-7927,mike@fastphonefix.com,N/A,"11009 Shady Trail, Dallas, TX 75229, USA",https://www.facebook.com/FastPhoneParts,http://www.fastphonefix.com/,yes
FR Wireless,"FR Wireless is the largest Wholesale Distributor of Consumer Electronic Accessories in the Southeast Region. We have over 10 years of industry experience and are the preferred partner for Cellular Accessories Solution for National Retailers, Regional Retailers, and Franchisees. ",yes,yes,Farid Ibrahim,Business Owner,972-247-8894,sales@frwireless.com,https://www.linkedin.com/in/farid-ibrahim-bb5420154,"11278 Harry Hines Blvd, Dallas, TX 75229, USA",N/A,https://www.frwirelessdirect.com/,yes
Global Direct Parts,We are an LG Authorized mobile parts distributor,no,yes,N/A,N/A,(210) 437-2000,sales@globaldirectparts.com,N/A,"1141 N Loop 1604 E #105-112, San Antonio, TX 78232, USA",N/A,https://globaldirectparts.com/,yes
Hedocell,We are a small family owned company with more than 10 years of experience in the wholesale and retail business of cellular phone accessories and other electronic gadgets.,yes,no,N/A,N/A,(956) 587-9188,support@hedocell.com,N/A,"PO Box 3639, Edinburg, TX 78540-3639, USA",N/A,https://www.hedocell.com/,yes
ishine Wireless,Wholesale cell phone parts & accessories.,yes,no,N/A,N/A,(972) 243-4131,ishinewirelessusa@gmail.com,N/A,"11311 Harry Hines Blvd #503, Dallas, TX 75229, USA",N/A,https://ishinewireless.com/,yes
K Wireless Wholesale Inc.,"K Wireless Wholesale Inc. purchases and manages large stock liquidations from Cellular Carriers, Service and Distribution Centers with a long and established record in the wireless industry. We re-market and supply a wide range of OEM original wireless stock: Handsets, Accessories to cellular online retailers and repair industry.",yes,no,Alex Tawab,CEO,210-854-6615,alex@kwirelesswholesale.com,https://www.linkedin.com/in/alextawab,"7506 Reindeer Trail, San Antonio, TX 78238, USA",N/A,https://www.kwirelesswholesale.com/,yes
LCD Parts Manufacturing & Distribution,"We are a value added mobile device parts distributor and service provider located in Houston, Texas.  
Our core competencies include mobile device refurbishment & repair, wholesale distribution of critical parts, and US assembly backed by the quality standards and customer service expected by our market.",no,yes,N/A,N/A,N/A,N/A,N/A,"12148 Bellaire Blvd STE 108, Houston, TEXAS (TX) 77072, USA",N/A,N/A,yes
Max Wireless,"Wholesale / Retail Cellphone Accessories, Cellphones, Repair, Electronics and Novalties.",yes,no,N/A,N/A,1 972-330-2886,maxwirelessdallas@gmail.com,N/A,"11398 Harry Hines Blvd, # 110 Dallas, TX 75229, USA",https://www.facebook.com/maxwirelessdallas/,N/A,yes
MK The Phone Store,"MK The Phone Store is one of the fastest-growing mobile business dealing in distribution and wholesale of mobile phones, parts and accessories in Dallas, Texas. We are associated with various manufactures, operators and distributors in different parts of the US.",yes,yes,Mike Khoja,Business Development Contact,1 469-522-0000,info@mkphones.com,https://www.linkedin.com/in/mike-khoja-95522a48/,"11635 Harry Hines Blvd, Dallas, TX 75229, United States",https://www.facebook.com/mkphones/,http://www.mkphones.com/,yes
My Parts Factory,"My Parts Factory was founded in January 2014 in Dallas, Texas.  We are the premier distributor for phone parts and specialize in Phone Parts for Apple, Samsung, LG and many other brands.",no,yes,N/A,N/A,469-886-9369,nfo@MyPartsFactory.com,N/A,"11532 Harry Hines Blvd. Ste 124, Dallas, Texas 75229, USA",https://www.facebook.com/MyPartsFactory/,https://mypartsfactory.com/,yes
Nasteck Mobile Parts,Nasteck Mobile Parts Inc. is a leading manufacturer and distributor for cellular phone parts and replacement parts.,no,yes,Sam Chen,Regional Sales Director,1 281-302-5456,contact@nasteck.com,https://www.linkedin.com/in/sam-chen-65117117/,"12705 S Kirkwood Rd, Suite 219, Stafford, Texas 77477, USA",https://www.facebook.com/nasteckmobilepartswholesale/,https://www.nasteck.com/,yes
Parts4cells,"Looking for wholesale phone parts, phone replacement parts, Android phone repair parts, mobile parts buy online at warehouse. Parts4cells offers wholesale cell parts near you.",yes,no,William Medina,National Director of Sales and Marketing,1 832-489-2386,sales@parts4cells.com,https://www.linkedin.com/in/william-medina-5a51a43a/,"5750 Bintliff Dr suite 220, Houston, TX 77036, United States",https://www.facebook.com/HoustonP4C/,https://parts4cells.com/,yes
Plano Mobile LLC,"We as Plano Mobile LLC are a wholesaler, specialized in servicepack LCD, accessories, and Mobiles Phones.",yes,no,N/A,N/A,1 214 431 5286,info@plano-mobile.com,N/A,"14332 Montfort Drive, Suite 6308, Dallas, TX 75254, USA",N/A,http://www.plano-mobile.com/,yes
Tiger Parts,"Wholesale phone parts, phone replacement parts.",yes,no,N/A,N/A,1.877.555.9300,tigerpartsllc@gmail.com,N/A,"6855 Harwin Dr. Ste C. Houston, TX 77036, USA",N/A,https://www.tigerpartllc.com/,yes
TXParts Enterprise LLC,"No 1 source for best quality wholesale cell phones repair parts, iPhone 6 and Samsung Galaxy S7 repair parts & Accessories in Houston Texas.",yes,no,Eric Minhas,Owner,832-324-9590,sales@txparts.com,https://www.linkedin.com/in/eric-minhas-177b04143/,"3945 Greenbriar Dr. Suite C, Stafford, TX 77477, USA",https://hi-in.facebook.com/people/TXParts-Enterprise-LLC/100084334856883/,https://www.txparts.com/,yes
Winner Wireless,We are the #1 distributor of wholesale cell phone accessories in the USA.,no,yes,Aslam Ajani,CEO,1-888-239-5864,info@winnerwireless.com,https://www.linkedin.com/in/aslam-ajani-226050155/,"11528 Harry Hines Blvd. Suite C-301, Dallas, Texas, 75229, USA",N/A,https://www.winnerwireless.com/,yes
Wireless Tech,Wireless Tech is a cellular replacement parts distributor and wholesale operation involved exclusively in B2B sales and services.,yes,yes,N/A,N/A,(210) 447-7174,wirelesstechtx@gmail.com,N/A,"10406 Gulfdale, San Antonio, TX 78216, USA",https://cs-cz.facebook.com/WirelessTechTexas/,https://wirelesstechtx.com/,yes
Wireless Waves,Wireless Waves is a leading wholesaler & distributor of wireless accessories and phones based in Houston serving its customers all over USA.,yes,yes,Ismail Gilani,Sales Manager,832-831-1884,support@wirelesswavestx.com,https://www.linkedin.com/in/ismail-gilani-08a7a4151/,"7800 Harwin Dr, STE A4, Houston, Texas 77036, USA",https://www.facebook.com/wirelesswaves,http://www.wirelesswavestx.com/,yes
World Cellular,We Opened Our Doors For Business In 2001 As A Distributor And Wholesaler Of Cell Phone Accessories.,yes,yes,Ahmad Shakurjamal,VP of Sales,713-780-0307,info@2worldcellular.com,https://www.linkedin.com/in/ahmad-shakurjamal-a31833191/,"5750 Bintliff Dr. Suite 202, Houston, TX 77036, USA",N/A,https://www.2worldcellular.com/,yes
XCELLPARTS,Leading Cell Phone Repair Parts Wholesaler of Houston - USA,yes,no,N/A,N/A,1 281 786 8016,info@xcellparts.com,N/A,"6885 Harwin Dr Suite K, Houston, Texas, United States",https://www.facebook.com/Xcellparts,https://xcellparts.com/,yes
Y-Max Wireless,"Y-Max Wireless specializes in distributing the fastest cell phone accessories, Bright LED lighting solutions, and other raving products that sell in the marketplace.",no,yes,N/A,N/A,1 917-693-2435,info@ymaxusa.com,N/A,"5826 Parkersburg Dr, Houston, TX 77036, United States",N/A,https://www.ymaxwireless.com/,yes
Axiom Armor,"Axiom Armor® is a manufacturer and distributor of mobile device protection and other accessories and is based in Bedford, Virginia, USA.",no,yes,Mark Pauley,Founder & CEO,1 540-215-8444,mark@axiomarmor.com,https://www.linkedin.com/in/mpauley/,"117 S. Bridge St, Bedford, VA, Virginia, United States",https://www.facebook.com/axiomarmor/,https://axiomarmor.com/,yes
"Global Mobiles, Inc.","Global Mobile distributes household brand name electronics domestically and internationally.
Electronics, Cell phone accessories, Speakers, Chargers, Monitors, Printers, Tablets",no,yes,Masoud Wardak,CEO,703-309-7111,ecommerce@globalmobilesinc.com,https://www.linkedin.com/in/masoud-wardak-0b0550141/,"8006 Haute Court, Springfield, Virginia 22150, United States",N/A,https://globalmobilesinc.com/,yes
Mobilesentrix,"Mobilesentrix is the leading wholesale supplier of Cell Phone Parts, Accessories, iPhone Parts.",yes,no,Jordan Notenbaum,President,1 (202) 540-9946,sales@mobilesentrix.com,https://www.linkedin.com/in/jordannotenbaum,"4315 Walney RD, Chantilly Virginia 20151, USA",https://www.facebook.com/mobilesentrix,https://www.mobilesentrix.com/,yes
"Livit Mobile, LLC","Livit Mobile, operating in the state of Washington, is a wireless device accessory retail and wholesale company.",yes,no,N/A,N/A,360-597-3454,theoffice@livitmobilenow.com,N/A,"7809 NE  Vancouver Plaza Dr., Suite 160, Vancouver, WA, USA",https://www.facebook.com/livitmobile/,https://livitmobile.com/,yes
Ziva Wireless Inc.,"Ziva Wireless Inc based in Washington state is a leading wholesaler of all cellphone, tablet and other consumer electronics accessories.",yes,no,N/A,N/A,N/A,sales@zivawireless.com,N/A,"4210 20th St E, Fife WA 98424, USA",N/A,https://www.zivawireless.com/,yes